{
  "type": "FeatureCollection",
  "features": [
    {
      "type": "Feature",
      "geometry": {
        "type": "Point",
        "coordinates": [
          26.48,
          -18.383
        ]
      },
      "properties": {
        "id": "wba_prj_01HREAL001",
        "name": "Hwange Thermal Power Station Expansion Units 7 & 8",
        "country": "ZWE",
        "sectors": "other",
        "status": "commissioned",
        "location_precision": "exact"
      }
    },
    {
      "type": "Feature",
      "geometry": {
        "type": "Point",
        "coordinates": [
          28.761,
          -16.521
        ]
      },
      "properties": {
        "id": "wba_prj_01HREAL002",
        "name": "Kariba South Hydropower Station Expansion",
        "country": "ZWE",
        "sectors": "hydropower",
        "status": "commissioned",
        "location_precision": "exact"
      }
    },
    {
      "type": "Feature",
      "geometry": {
        "type": "Point",
        "coordinates": [
          31.092,
          -17.931
        ]
      },
      "properties": {
        "id": "wba_prj_01HREAL003",
        "name": "Robert Gabriel Mugabe International Airport Expansion",
        "country": "ZWE",
        "sectors": "airports",
        "status": "commissioned",
        "location_precision": "approximate"
      }
    },
    {
      "type": "Feature",
      "geometry": null,
      "properties": {
        "id": "wba_prj_01HREAL004",
        "name": "Nairobi Expressway",
        "country": "KEN",
        "sectors": "roads|urban_development",
        "status": "commissioned",
        "location_precision": "corridor",
        "geom_wkt": "LINESTRING(36.92 -1.31, 36.78 -1.28)"
      }
    },
    {
      "type": "Feature",
      "geometry": null,
      "properties": {
        "id": "wba_prj_01HREAL005",
        "name": "Mombasa\u2013Nairobi Standard Gauge Railway Phase 1",
        "country": "KEN",
        "sectors": "railways",
        "status": "commissioned",
        "location_precision": "corridor",
        "geom_wkt": "LINESTRING(39.66 -4.05, 36.82 -1.29)"
      }
    },
    {
      "type": "Feature",
      "geometry": {
        "type": "Point",
        "coordinates": [
          36.82,
          2.85
        ]
      },
      "properties": {
        "id": "wba_prj_01HREAL006",
        "name": "Lake Turkana Wind Power Project",
        "country": "KEN",
        "sectors": "wind_power",
        "status": "commissioned",
        "location_precision": "exact"
      }
    },
    {
      "type": "Feature",
      "geometry": null,
      "properties": {
        "id": "wba_prj_01HREAL007",
        "name": "Addis Ababa Light Rail Transit",
        "country": "ETH",
        "sectors": "public_transport|railways",
        "status": "commissioned",
        "location_precision": "corridor",
        "geom_wkt": "LINESTRING(38.78 8.98, 38.77 9.03)"
      }
    },
    {
      "type": "Feature",
      "geometry": null,
      "properties": {
        "id": "wba_prj_01HREAL008",
        "name": "Addis Ababa\u2013Djibouti Standard Gauge Railway",
        "country": "ETH",
        "sectors": "railways",
        "status": "commissioned",
        "location_precision": "corridor",
        "geom_wkt": "LINESTRING(38.74 9.03, 43.0 11.59)"
      }
    },
    {
      "type": "Feature",
      "geometry": {
        "type": "Point",
        "coordinates": [
          35.09,
          11.22
        ]
      },
      "properties": {
        "id": "wba_prj_01HREAL009",
        "name": "Grand Ethiopian Renaissance Dam",
        "country": "ETH",
        "sectors": "hydropower|dams",
        "status": "commissioned",
        "location_precision": "exact"
      }
    },
    {
      "type": "Feature",
      "geometry": {
        "type": "Point",
        "coordinates": [
          30.943,
          -17.689
        ]
      },
      "properties": {
        "id": "wba_prj_01HREAL010",
        "name": "New Parliament Building, Mount Hampden",
        "country": "ZWE",
        "sectors": "government_buildings",
        "status": "commissioned",
        "location_precision": "exact"
      }
    },
    {
      "type": "Feature",
      "geometry": {
        "type": "Point",
        "coordinates": [
          25.839,
          -18.096
        ]
      },
      "properties": {
        "id": "wba_prj_01HREAL011",
        "name": "Victoria Falls International Airport Expansion",
        "country": "ZWE",
        "sectors": "airports",
        "status": "commissioned",
        "location_precision": "exact"
      }
    },
    {
      "type": "Feature",
      "geometry": {
        "type": "Point",
        "coordinates": [
          37.095,
          -1.057
        ]
      },
      "properties": {
        "id": "wba_prj_01HREAL012",
        "name": "Kenya Advanced Institute of Science and Technology at Konza",
        "country": "KEN",
        "sectors": "schools|universities|telecommunications",
        "status": "proposed",
        "location_precision": "approximate"
      }
    },
    {
      "type": "Feature",
      "geometry": {
        "type": "Point",
        "coordinates": [
          40.91,
          -2.416
        ]
      },
      "properties": {
        "id": "wba_prj_01HREAL013",
        "name": "Lamu Port First Three Berths",
        "country": "KEN",
        "sectors": "ports",
        "status": "commissioned",
        "location_precision": "exact"
      }
    },
    {
      "type": "Feature",
      "geometry": {
        "type": "Point",
        "coordinates": [
          38.476,
          7.06
        ]
      },
      "properties": {
        "id": "wba_prj_01HREAL014",
        "name": "Hawassa Industrial Park",
        "country": "ETH",
        "sectors": "industrial_parks|manufacturing",
        "status": "commissioned",
        "location_precision": "exact"
      }
    },
    {
      "type": "Feature",
      "geometry": {
        "type": "Point",
        "coordinates": [
          25.262,
          -17.775
        ]
      },
      "properties": {
        "id": "wba_prj_01HREAL015",
        "name": "Kazungula Bridge",
        "country": "BWA",
        "sectors": "bridges",
        "status": "commissioned",
        "location_precision": "exact"
      }
    },
    {
      "type": "Feature",
      "geometry": {
        "type": "Point",
        "coordinates": [
          29.987,
          -22.217
        ]
      },
      "properties": {
        "id": "wba_prj_01HREAL016",
        "name": "Beitbridge Border Post Modernisation",
        "country": "ZWE",
        "sectors": "other",
        "status": "commissioned",
        "location_precision": "exact"
      }
    },
    {
      "type": "Feature",
      "geometry": {
        "type": "Point",
        "coordinates": [
          31.053,
          -17.829
        ]
      },
      "properties": {
        "id": "wba_prj_01HREAL017",
        "name": "TelOne National Broadband Telecommunication Project",
        "country": "ZWE",
        "sectors": "telecommunications|digital_infrastructure",
        "status": "commissioned",
        "location_precision": "approximate"
      }
    },
    {
      "type": "Feature",
      "geometry": {
        "type": "Point",
        "coordinates": [
          37.738,
          -1.789
        ]
      },
      "properties": {
        "id": "wba_prj_01HREAL018",
        "name": "Thwake Multipurpose Water Development Program",
        "country": "KEN",
        "sectors": "dams|water_supply|hydropower",
        "status": "construction_started",
        "location_precision": "exact"
      }
    },
    {
      "type": "Feature",
      "geometry": {
        "type": "Point",
        "coordinates": [
          39.636,
          -4.054
        ]
      },
      "properties": {
        "id": "wba_prj_01HREAL019",
        "name": "Mombasa Port Second Container Terminal",
        "country": "KEN",
        "sectors": "ports",
        "status": "commissioned",
        "location_precision": "exact"
      }
    },
    {
      "type": "Feature",
      "geometry": {
        "type": "Point",
        "coordinates": [
          39.25,
          8.458
        ]
      },
      "properties": {
        "id": "wba_prj_01HREAL020",
        "name": "Adama Wind Power Project I & II",
        "country": "ETH",
        "sectors": "wind_power",
        "status": "commissioned",
        "location_precision": "exact"
      }
    },
    {
      "type": "Feature",
      "geometry": {
        "type": "Point",
        "coordinates": [
          38.797,
          8.978
        ]
      },
      "properties": {
        "id": "wba_prj_01HREAL021",
        "name": "Addis Ababa Bole International Airport Expansion",
        "country": "ETH",
        "sectors": "airports",
        "status": "commissioned",
        "location_precision": "exact"
      }
    },
    {
      "type": "Feature",
      "geometry": {
        "type": "Point",
        "coordinates": [
          28.424,
          -15.803
        ]
      },
      "properties": {
        "id": "wba_prj_01HREAL022",
        "name": "Kafue Gorge Lower Hydropower Station",
        "country": "ZMB",
        "sectors": "hydropower|dams",
        "status": "commissioned",
        "location_precision": "exact"
      }
    },
    {
      "type": "Feature",
      "geometry": {
        "type": "Point",
        "coordinates": [
          37.861,
          -7.809
        ]
      },
      "properties": {
        "id": "wba_prj_01HREAL023",
        "name": "Julius Nyerere Hydropower Plant and Dam",
        "country": "TZA",
        "sectors": "hydropower|dams",
        "status": "commissioned",
        "location_precision": "exact"
      }
    },
    {
      "type": "Feature",
      "geometry": {
        "type": "Point",
        "coordinates": [
          32.572,
          -25.973
        ]
      },
      "properties": {
        "id": "wba_prj_01HREAL024",
        "name": "Maputo-Katembe Bridge",
        "country": "MOZ",
        "sectors": "bridges",
        "status": "commissioned",
        "location_precision": "exact"
      }
    },
    {
      "type": "Feature",
      "geometry": {
        "type": "Point",
        "coordinates": [
          30.181,
          -2.13
        ]
      },
      "properties": {
        "id": "wba_prj_01HREAL025",
        "name": "New Bugesera International Airport",
        "country": "RWA",
        "sectors": "airports",
        "status": "construction_started",
        "location_precision": "exact"
      }
    },
    {
      "type": "Feature",
      "geometry": null,
      "properties": {
        "id": "wba_prj_01HREAL026",
        "name": "Dakar Regional Express Train",
        "country": "SEN",
        "sectors": "railways|public_transport",
        "status": "commissioned",
        "location_precision": "corridor",
        "geom_wkt": "LINESTRING(-17.45 14.69, -17.07 14.78)"
      }
    },
    {
      "type": "Feature",
      "geometry": {
        "type": "Point",
        "coordinates": [
          -2.121,
          8.278
        ]
      },
      "properties": {
        "id": "wba_prj_01HREAL027",
        "name": "Bui Hydropower Dam",
        "country": "GHA",
        "sectors": "hydropower|dams",
        "status": "commissioned",
        "location_precision": "exact"
      }
    },
    {
      "type": "Feature",
      "geometry": {
        "type": "Point",
        "coordinates": [
          15.121,
          -9.743
        ]
      },
      "properties": {
        "id": "wba_prj_01HREAL028",
        "name": "Lauca Hydroelectric Power Station",
        "country": "AGO",
        "sectors": "hydropower|dams",
        "status": "commissioned",
        "location_precision": "exact"
      }
    },
    {
      "type": "Feature",
      "geometry": null,
      "properties": {
        "id": "wba_prj_01HREAL029",
        "name": "Kampala-Entebbe Expressway",
        "country": "UGA",
        "sectors": "roads",
        "status": "commissioned",
        "location_precision": "corridor",
        "geom_wkt": "LINESTRING(32.56 0.32, 32.47 0.06)"
      }
    },
    {
      "type": "Feature",
      "geometry": {
        "type": "Point",
        "coordinates": [
          33.787,
          -13.962
        ]
      },
      "properties": {
        "id": "wba_prj_01HREAL030",
        "name": "National Fibre Backbone Project Phase I-II",
        "country": "MWI",
        "sectors": "telecommunications|digital_infrastructure",
        "status": "commissioned",
        "location_precision": "exact"
      }
    },
    {
      "type": "Feature",
      "geometry": {
        "type": "Point",
        "coordinates": [
          30.507,
          -20.728
        ]
      },
      "properties": {
        "id": "wba_prj_01HREAL031",
        "name": "Tokwe-Mukosi Dam",
        "country": "ZWE",
        "sectors": "dams|water_supply",
        "status": "commissioned",
        "location_precision": "exact"
      }
    },
    {
      "type": "Feature",
      "geometry": {
        "type": "Point",
        "coordinates": [
          31.033,
          -17.825
        ]
      },
      "properties": {
        "id": "wba_prj_01HREAL032",
        "name": "NetOne Broadband Expansion Project Phase 3",
        "country": "ZWE",
        "sectors": "telecommunications|digital_infrastructure",
        "status": "commissioned",
        "location_precision": "approximate"
      }
    },
    {
      "type": "Feature",
      "geometry": {
        "type": "Point",
        "coordinates": [
          36.287,
          -0.892
        ]
      },
      "properties": {
        "id": "wba_prj_01HREAL033",
        "name": "Olkaria Geothermal Power Plants",
        "country": "KEN",
        "sectors": "hydropower",
        "status": "commissioned",
        "location_precision": "exact"
      }
    },
    {
      "type": "Feature",
      "geometry": null,
      "properties": {
        "id": "wba_prj_01HREAL034",
        "name": "Nairobi Outer Ring Road Improvement Project",
        "country": "KEN",
        "sectors": "roads",
        "status": "commissioned",
        "location_precision": "corridor",
        "geom_wkt": "LINESTRING(36.86 -1.28, 36.89 -1.31)"
      }
    },
    {
      "type": "Feature",
      "geometry": {
        "type": "Point",
        "coordinates": [
          39.221,
          5.846
        ]
      },
      "properties": {
        "id": "wba_prj_01HREAL035",
        "name": "Genale Dawa III Multipurpose Hydropower Project",
        "country": "ETH",
        "sectors": "hydropower|dams",
        "status": "commissioned",
        "location_precision": "exact"
      }
    },
    {
      "type": "Feature",
      "geometry": {
        "type": "Point",
        "coordinates": [
          28.449,
          -15.325
        ]
      },
      "properties": {
        "id": "wba_prj_01HREAL036",
        "name": "Kenneth Kaunda International Airport Expansion",
        "country": "ZMB",
        "sectors": "airports",
        "status": "commissioned",
        "location_precision": "exact"
      }
    },
    {
      "type": "Feature",
      "geometry": null,
      "properties": {
        "id": "wba_prj_01HREAL037",
        "name": "Tanzania Standard Gauge Railway Lots 3 & 4",
        "country": "TZA",
        "sectors": "railways",
        "status": "construction_started",
        "location_precision": "corridor",
        "geom_wkt": "LINESTRING(33.44 -6.16, 32.80 -5.02)"
      }
    },
    {
      "type": "Feature",
      "geometry": null,
      "properties": {
        "id": "wba_prj_01HREAL038",
        "name": "Nacala Railway and Port Corridor",
        "country": "MOZ",
        "sectors": "railways|ports",
        "status": "commissioned",
        "location_precision": "corridor",
        "geom_wkt": "LINESTRING(40.78 -14.54, 35.58 -14.38)"
      }
    },
    {
      "type": "Feature",
      "geometry": {
        "type": "Point",
        "coordinates": [
          -0.018,
          5.618
        ]
      },
      "properties": {
        "id": "wba_prj_01HREAL039",
        "name": "Tema Port Expansion Terminal 3",
        "country": "GHA",
        "sectors": "ports",
        "status": "commissioned",
        "location_precision": "exact"
      }
    },
    {
      "type": "Feature",
      "geometry": {
        "type": "Point",
        "coordinates": [
          16.016,
          -9.312
        ]
      },
      "properties": {
        "id": "wba_prj_01HREAL040",
        "name": "Caculo Cabaca Hydropower Station",
        "country": "AGO",
        "sectors": "hydropower|dams",
        "status": "construction_started",
        "location_precision": "exact"
      }
    },
    {
      "type": "Feature",
      "geometry": {
        "type": "Point",
        "coordinates": [
          -6.869,
          31.048
        ]
      },
      "properties": {
        "id": "wba_prj_01HREAL041",
        "name": "Noor Ouarzazate Solar Complex",
        "country": "MAR",
        "sectors": "solar_power",
        "status": "commissioned",
        "location_precision": "exact"
      }
    },
    {
      "type": "Feature",
      "geometry": {
        "type": "Point",
        "coordinates": [
          14.481,
          -22.959
        ]
      },
      "properties": {
        "id": "wba_prj_01HREAL042",
        "name": "Walvis Bay New Container Terminal",
        "country": "NAM",
        "sectors": "ports",
        "status": "commissioned",
        "location_precision": "exact"
      }
    },
    {
      "type": "Feature",
      "geometry": {
        "type": "Point",
        "coordinates": [
          9.909,
          2.945
        ]
      },
      "properties": {
        "id": "wba_prj_01HREAL043",
        "name": "Kribi Deep Sea Port Phase I & II",
        "country": "CMR",
        "sectors": "ports",
        "status": "commissioned",
        "location_precision": "exact"
      }
    },
    {
      "type": "Feature",
      "geometry": null,
      "properties": {
        "id": "wba_prj_01HREAL044",
        "name": "Gautrain Rapid Rail System",
        "country": "ZAF",
        "sectors": "railways|public_transport",
        "status": "commissioned",
        "location_precision": "corridor",
        "geom_wkt": "LINESTRING(28.05 -26.20, 28.11 -25.75)"
      }
    },
    {
      "type": "Feature",
      "geometry": {
        "type": "Point",
        "coordinates": [
          26.909,
          -10.917
        ]
      },
      "properties": {
        "id": "wba_prj_01HREAL045",
        "name": "Busanga Hydropower Plant",
        "country": "COD",
        "sectors": "hydropower|dams",
        "status": "commissioned",
        "location_precision": "exact"
      }
    },
    {
      "type": "Feature",
      "geometry": {
        "type": "Point",
        "coordinates": [
          31.667,
          30.02
        ]
      },
      "properties": {
        "id": "wba_prj_01HREAL046",
        "name": "New Administrative Capital Central Business District",
        "country": "EGY",
        "sectors": "urban_development",
        "status": "commissioned",
        "location_precision": "exact"
      }
    },
    {
      "type": "Feature",
      "geometry": {
        "type": "Point",
        "coordinates": [
          -17.073,
          14.67
        ]
      },
      "properties": {
        "id": "wba_prj_01HREAL047",
        "name": "Blaise Diagne International Airport",
        "country": "SEN",
        "sectors": "airports",
        "status": "commissioned",
        "location_precision": "exact"
      }
    },
    {
      "type": "Feature",
      "geometry": {
        "type": "Point",
        "coordinates": [
          30.091,
          -1.953
        ]
      },
      "properties": {
        "id": "wba_prj_01HREAL048",
        "name": "BK Arena",
        "country": "RWA",
        "sectors": "other",
        "status": "commissioned",
        "location_precision": "exact"
      }
    },
    {
      "type": "Feature",
      "geometry": {
        "type": "Point",
        "coordinates": [
          32.233,
          2.235
        ]
      },
      "properties": {
        "id": "wba_prj_01HREAL049",
        "name": "Karuma Hydropower Plant",
        "country": "UGA",
        "sectors": "hydropower|dams",
        "status": "commissioned",
        "location_precision": "exact"
      }
    },
    {
      "type": "Feature",
      "geometry": {
        "type": "Point",
        "coordinates": [
          -1.477,
          12.382
        ]
      },
      "properties": {
        "id": "wba_prj_01HREAL050",
        "name": "Zagtouli Solar Power Station",
        "country": "BFA",
        "sectors": "solar_power",
        "status": "commissioned",
        "location_precision": "exact"
      }
    },
    {
      "type": "Feature",
      "geometry": {
        "type": "Point",
        "coordinates": [
          6.123,
          6.123
        ]
      },
      "properties": {
        "id": "wba_prj_01HREAL051",
        "name": "Ajaokuta Steel Mill",
        "country": "NGA",
        "sectors": "manufacturing|industrial_parks",
        "status": "abandoned",
        "location_precision": "approximate"
      }
    },
    {
      "type": "Feature",
      "geometry": null,
      "properties": {
        "id": "wba_prj_01HREAL052",
        "name": "TAZARA Railway",
        "country": "TZA",
        "sectors": "railways",
        "status": "commissioned",
        "location_precision": "corridor",
        "geom_wkt": "LINESTRING(39.20 -6.82, 28.44 -12.96)"
      }
    },
    {
      "type": "Feature",
      "geometry": {
        "type": "Point",
        "coordinates": [
          0.053,
          -0.054
        ]
      },
      "properties": {
        "id": "wba_prj_01HREAL053",
        "name": "Akosombo Dam",
        "country": "GHA",
        "sectors": "hydropower|dams",
        "status": "commissioned",
        "location_precision": "exact"
      }
    },
    {
      "type": "Feature",
      "geometry": {
        "type": "Point",
        "coordinates": [
          32.702,
          -15.586
        ]
      },
      "properties": {
        "id": "wba_prj_01HREAL054",
        "name": "Cahora Bassa Dam and HVDC System",
        "country": "MOZ",
        "sectors": "hydropower|dams|transmission",
        "status": "commissioned",
        "location_precision": "exact"
      }
    },
    {
      "type": "Feature",
      "geometry": {
        "type": "Point",
        "coordinates": [
          32.881,
          23.973
        ]
      },
      "properties": {
        "id": "wba_prj_01HREAL055",
        "name": "Aswan High Dam",
        "country": "EGY",
        "sectors": "hydropower|dams",
        "status": "commissioned",
        "location_precision": "exact"
      }
    },
    {
      "type": "Feature",
      "geometry": null,
      "properties": {
        "id": "wba_prj_01HREAL056",
        "name": "Great Man-Made River Phases I-III",
        "country": "LBY",
        "sectors": "water_supply|irrigation",
        "status": "commissioned",
        "location_precision": "corridor",
        "geom_wkt": "LINESTRING(16.0 32.0, 20.0 30.0)"
      }
    },
    {
      "type": "Feature",
      "geometry": {
        "type": "Point",
        "coordinates": [
          31.842,
          18.668
        ]
      },
      "properties": {
        "id": "wba_prj_01HREAL057",
        "name": "Merowe Dam",
        "country": "SDN",
        "sectors": "hydropower|dams",
        "status": "commissioned",
        "location_precision": "exact"
      }
    },
    {
      "type": "Feature",
      "geometry": {
        "type": "Point",
        "coordinates": [
          -6.661,
          5.787
        ]
      },
      "properties": {
        "id": "wba_prj_01HREAL058",
        "name": "Soubre Hydroelectric Power Station",
        "country": "CIV",
        "sectors": "hydropower|dams",
        "status": "commissioned",
        "location_precision": "exact"
      }
    },
    {
      "type": "Feature",
      "geometry": {
        "type": "Point",
        "coordinates": [
          13.276,
          -8.992
        ]
      },
      "properties": {
        "id": "wba_prj_01HREAL059",
        "name": "Kilamba Kiaxi New City",
        "country": "AGO",
        "sectors": "housing|urban_development",
        "status": "commissioned",
        "location_precision": "approximate"
      }
    },
    {
      "type": "Feature",
      "geometry": {
        "type": "Point",
        "coordinates": [
          0.986,
          14.612
        ]
      },
      "properties": {
        "id": "wba_prj_01HREAL060",
        "name": "Kandadji Dam",
        "country": "NER",
        "sectors": "dams|water_supply|irrigation",
        "status": "delayed",
        "location_precision": "approximate"
      }
    },
    {
      "type": "Feature",
      "geometry": {
        "type": "Point",
        "coordinates": [
          38.901,
          -6.478
        ]
      },
      "properties": {
        "id": "wba_prj_01HREAL061",
        "name": "Bagamoyo Port and Special Economic Zone",
        "country": "TZA",
        "sectors": "ports|special_economic_zones",
        "status": "suspended",
        "location_precision": "approximate"
      }
    },
    {
      "type": "Feature",
      "geometry": null,
      "properties": {
        "id": "wba_prj_01HREAL062",
        "name": "East African Crude Oil Pipeline",
        "country": "UGA",
        "sectors": "oil_gas",
        "status": "construction_started",
        "location_precision": "corridor",
        "geom_wkt": "LINESTRING(30.00 1.37, 39.20 -6.82)"
      }
    },
    {
      "type": "Feature",
      "geometry": null,
      "properties": {
        "id": "wba_prj_01HREAL063",
        "name": "Lobito Corridor Atlantic Railway",
        "country": "AGO",
        "sectors": "railways|ports",
        "status": "proposed",
        "location_precision": "corridor",
        "geom_wkt": "LINESTRING(12.35 -12.36, 27.84 -13.97)"
      }
    },
    {
      "type": "Feature",
      "geometry": null,
      "properties": {
        "id": "wba_prj_01HREAL064",
        "name": "Abidjan Metro Line 1",
        "country": "CIV",
        "sectors": "railways|public_transport",
        "status": "delayed",
        "location_precision": "corridor",
        "geom_wkt": "LINESTRING(-4.02 5.36, -3.96 5.40)"
      }
    },
    {
      "type": "Feature",
      "geometry": {
        "type": "Point",
        "coordinates": [
          3.031,
          36.739
        ]
      },
      "properties": {
        "id": "wba_prj_01HREAL065",
        "name": "Djamaa El Djazair - Great Mosque of Algiers",
        "country": "DZA",
        "sectors": "other",
        "status": "commissioned",
        "location_precision": "exact"
      }
    },
    {
      "type": "Feature",
      "geometry": null,
      "properties": {
        "id": "wba_prj_01HREAL066",
        "name": "Algerian East-West Highway",
        "country": "DZA",
        "sectors": "roads",
        "status": "commissioned",
        "location_precision": "corridor",
        "geom_wkt": "LINESTRING(5.07 36.75, 7.76 36.46)"
      }
    },
    {
      "type": "Feature",
      "geometry": {
        "type": "Point",
        "coordinates": [
          10.437,
          36.077
        ]
      },
      "properties": {
        "id": "wba_prj_01HREAL067",
        "name": "Enfidha-Hammamet International Airport",
        "country": "TUN",
        "sectors": "airports",
        "status": "commissioned",
        "location_precision": "exact"
      }
    },
    {
      "type": "Feature",
      "geometry": {
        "type": "Point",
        "coordinates": [
          43.15,
          11.6
        ]
      },
      "properties": {
        "id": "wba_prj_01HREAL068",
        "name": "Doraleh Container Terminal",
        "country": "DJI",
        "sectors": "ports",
        "status": "cancelled",
        "location_precision": "exact"
      }
    },
    {
      "type": "Feature",
      "geometry": {
        "type": "Point",
        "coordinates": [
          27.03,
          -22.514
        ]
      },
      "properties": {
        "id": "wba_prj_01HREAL069",
        "name": "Morupule B Power Station",
        "country": "BWA",
        "sectors": "other",
        "status": "commissioned",
        "location_precision": "exact"
      }
    },
    {
      "type": "Feature",
      "geometry": {
        "type": "Point",
        "coordinates": [
          38.771,
          8.997
        ]
      },
      "properties": {
        "id": "wba_prj_01HREAL070",
        "name": "Africa CDC Headquarters Phase I",
        "country": "ETH",
        "sectors": "hospitals|government_buildings",
        "status": "commissioned",
        "location_precision": "exact"
      }
    },
    {
      "type": "Feature",
      "geometry": null,
      "properties": {
        "id": "wba_prj_01HREAL071",
        "name": "Simandou Iron Ore Project Railway and Port",
        "country": "GIN",
        "sectors": "railways|ports|mining_infrastructure",
        "status": "construction_started",
        "location_precision": "corridor",
        "geom_wkt": "LINESTRING(-10.5 9.5, -13.5 10.2)"
      }
    },
    {
      "type": "Feature",
      "geometry": null,
      "properties": {
        "id": "wba_prj_01HREAL072",
        "name": "Abuja Light Rail",
        "country": "NGA",
        "sectors": "railways|public_transport",
        "status": "commissioned",
        "location_precision": "corridor",
        "geom_wkt": "LINESTRING(7.49 9.07, 7.39 8.99)"
      }
    },
    {
      "type": "Feature",
      "geometry": null,
      "properties": {
        "id": "wba_prj_01HREAL073",
        "name": "Niger-Benin Crude Oil Export Pipeline",
        "country": "NER",
        "sectors": "oil_gas",
        "status": "commissioned",
        "location_precision": "corridor",
        "geom_wkt": "LINESTRING(2.11 13.5, 2.62 6.45)"
      }
    },
    {
      "type": "Feature",
      "geometry": null,
      "properties": {
        "id": "wba_prj_01HREAL074",
        "name": "2Africa Submarine Telecommunications Cable",
        "country": "SEN",
        "sectors": "telecommunications",
        "status": "commissioned",
        "location_precision": "corridor",
        "geom_wkt": "LINESTRING(-17.5 14.7, 0.1 5.6)"
      }
    },
    {
      "type": "Feature",
      "geometry": {
        "type": "Point",
        "coordinates": [
          -11.724,
          9.067
        ]
      },
      "properties": {
        "id": "wba_prj_01HREAL075",
        "name": "Bumbuna Hydroelectric Power Station",
        "country": "SLE",
        "sectors": "hydropower|dams",
        "status": "commissioned",
        "location_precision": "exact"
      }
    },
    {
      "type": "Feature",
      "geometry": {
        "type": "Point",
        "coordinates": [
          29.917,
          3.806
        ]
      },
      "properties": {
        "id": "wba_prj_01HREAL076",
        "name": "Jiji and Mulembwe Hydropower Projects",
        "country": "BDI",
        "sectors": "hydropower|dams",
        "status": "commissioned",
        "location_precision": "exact"
      }
    },
    {
      "type": "Feature",
      "geometry": null,
      "properties": {
        "id": "wba_prj_01HREAL077",
        "name": "Cabo Verde Airports Modernisation",
        "country": "CPV",
        "sectors": "airports",
        "status": "commissioned",
        "location_precision": "corridor",
        "geom_wkt": "LINESTRING(-23.60 16.73, -22.93 16.15)"
      }
    },
    {
      "type": "Feature",
      "geometry": {
        "type": "Point",
        "coordinates": [
          18.1,
          4.8
        ]
      },
      "properties": {
        "id": "wba_prj_01HREAL078",
        "name": "Boali Hydropower Complex Rehabilitation",
        "country": "CAF",
        "sectors": "hydropower|dams",
        "status": "commissioned",
        "location_precision": "exact"
      }
    },
    {
      "type": "Feature",
      "geometry": {
        "type": "Point",
        "coordinates": [
          15.1,
          11.95
        ]
      },
      "properties": {
        "id": "wba_prj_01HREAL079",
        "name": "Djermaya Solar PV Power Plant",
        "country": "TCD",
        "sectors": "solar_power",
        "status": "construction_started",
        "location_precision": "exact"
      }
    },
    {
      "type": "Feature",
      "geometry": {
        "type": "Point",
        "coordinates": [
          43.4,
          -11.75
        ]
      },
      "properties": {
        "id": "wba_prj_01HREAL080",
        "name": "Bambao-Mtsanga Hospital",
        "country": "COM",
        "sectors": "hospitals",
        "status": "commissioned",
        "location_precision": "exact"
      }
    },
    {
      "type": "Feature",
      "geometry": null,
      "properties": {
        "id": "wba_prj_01HREAL081",
        "name": "Pointe-Noire to Brazzaville National Highway No.1",
        "country": "COG",
        "sectors": "roads",
        "status": "commissioned",
        "location_precision": "corridor",
        "geom_wkt": "LINESTRING(15.03 -4.77, 15.27 -4.26)"
      }
    },
    {
      "type": "Feature",
      "geometry": null,
      "properties": {
        "id": "wba_prj_01HREAL082",
        "name": "Nguema-Sipopo Road and Akurenam-Minang Road",
        "country": "GNQ",
        "sectors": "roads",
        "status": "commissioned",
        "location_precision": "corridor",
        "geom_wkt": "LINESTRING(8.78 3.75, 10.31 1.63)"
      }
    },
    {
      "type": "Feature",
      "geometry": {
        "type": "Point",
        "coordinates": [
          39.65,
          15.336
        ]
      },
      "properties": {
        "id": "wba_prj_01HREAL083",
        "name": "Hirgigo Power Plant Extension",
        "country": "ERI",
        "sectors": "other",
        "status": "commissioned",
        "location_precision": "exact"
      }
    },
    {
      "type": "Feature",
      "geometry": {
        "type": "Point",
        "coordinates": [
          31.12,
          -26.07
        ]
      },
      "properties": {
        "id": "wba_prj_01HREAL084",
        "name": "Maguga Dam",
        "country": "SWZ",
        "sectors": "dams|water_supply",
        "status": "commissioned",
        "location_precision": "exact"
      }
    },
    {
      "type": "Feature",
      "geometry": null,
      "properties": {
        "id": "wba_prj_01HREAL085",
        "name": "Trans-Gabon Railway Modernisation",
        "country": "GAB",
        "sectors": "railways|ports",
        "status": "construction_started",
        "location_precision": "corridor",
        "geom_wkt": "LINESTRING(9.45 0.39, 13.70 -0.71)"
      }
    },
    {
      "type": "Feature",
      "geometry": {
        "type": "Point",
        "coordinates": [
          -15.928,
          13.534
        ]
      },
      "properties": {
        "id": "wba_prj_01HREAL086",
        "name": "Senegambia Bridge",
        "country": "GMB",
        "sectors": "bridges|roads",
        "status": "commissioned",
        "location_precision": "exact"
      }
    },
    {
      "type": "Feature",
      "geometry": {
        "type": "Point",
        "coordinates": [
          -15.583,
          11.865
        ]
      },
      "properties": {
        "id": "wba_prj_01HREAL087",
        "name": "Bissau-Safim Highway",
        "country": "GNB",
        "sectors": "roads",
        "status": "commissioned",
        "location_precision": "exact"
      }
    },
    {
      "type": "Feature",
      "geometry": {
        "type": "Point",
        "coordinates": [
          28.52,
          -29.334
        ]
      },
      "properties": {
        "id": "wba_prj_01HREAL088",
        "name": "Katse Dam",
        "country": "LSO",
        "sectors": "dams|water_supply",
        "status": "commissioned",
        "location_precision": "exact"
      }
    },
    {
      "type": "Feature",
      "geometry": {
        "type": "Point",
        "coordinates": [
          -10.356,
          6.303
        ]
      },
      "properties": {
        "id": "wba_prj_01HREAL089",
        "name": "Mount Coffee Hydropower Rehabilitation",
        "country": "LBR",
        "sectors": "hydropower|dams",
        "status": "commissioned",
        "location_precision": "exact"
      }
    },
    {
      "type": "Feature",
      "geometry": {
        "type": "Point",
        "coordinates": [
          47.85,
          -19.25
        ]
      },
      "properties": {
        "id": "wba_prj_01HREAL090",
        "name": "Sahofika Hydropower Project",
        "country": "MDG",
        "sectors": "hydropower|dams",
        "status": "proposed",
        "location_precision": "exact"
      }
    },
    {
      "type": "Feature",
      "geometry": {
        "type": "Point",
        "coordinates": [
          -11.057,
          14.752
        ]
      },
      "properties": {
        "id": "wba_prj_01HREAL091",
        "name": "Gouina Hydropower Station",
        "country": "MLI",
        "sectors": "hydropower|dams",
        "status": "commissioned",
        "location_precision": "exact"
      }
    },
    {
      "type": "Feature",
      "geometry": {
        "type": "Point",
        "coordinates": [
          -15.975,
          18.083
        ]
      },
      "properties": {
        "id": "wba_prj_01HREAL092",
        "name": "Friendship Port of Nouakchott Expansion",
        "country": "MRT",
        "sectors": "ports",
        "status": "commissioned",
        "location_precision": "exact"
      }
    },
    {
      "type": "Feature",
      "geometry": null,
      "properties": {
        "id": "wba_prj_01HREAL093",
        "name": "Metro Express Light Rail",
        "country": "MUS",
        "sectors": "railways|public_transport",
        "status": "commissioned",
        "location_precision": "corridor",
        "geom_wkt": "LINESTRING(57.49 -20.24, 57.50 -20.16)"
      }
    },
    {
      "type": "Feature",
      "geometry": {
        "type": "Point",
        "coordinates": [
          6.712,
          0.38
        ]
      },
      "properties": {
        "id": "wba_prj_01HREAL094",
        "name": "Sao Tome International Airport Upgrade",
        "country": "STP",
        "sectors": "airports",
        "status": "proposed",
        "location_precision": "exact"
      }
    },
    {
      "type": "Feature",
      "geometry": {
        "type": "Point",
        "coordinates": [
          55.471,
          -4.616
        ]
      },
      "properties": {
        "id": "wba_prj_01HREAL095",
        "name": "Port Victoria Rehabilitation and Extension",
        "country": "SYC",
        "sectors": "ports",
        "status": "construction_started",
        "location_precision": "exact"
      }
    },
    {
      "type": "Feature",
      "geometry": null,
      "properties": {
        "id": "wba_prj_01HREAL096",
        "name": "Mogadishu Road Projects",
        "country": "SOM",
        "sectors": "roads",
        "status": "commissioned",
        "location_precision": "corridor",
        "geom_wkt": "LINESTRING(45.33 2.03, 45.30 2.10)"
      }
    },
    {
      "type": "Feature",
      "geometry": null,
      "properties": {
        "id": "wba_prj_01HREAL097",
        "name": "Juba-Nimule Road",
        "country": "SSD",
        "sectors": "roads",
        "status": "commissioned",
        "location_precision": "corridor",
        "geom_wkt": "LINESTRING(31.60 4.85, 32.06 3.78)"
      }
    },
    {
      "type": "Feature",
      "geometry": {
        "type": "Point",
        "coordinates": [
          1.3,
          6.135
        ]
      },
      "properties": {
        "id": "wba_prj_01HREAL098",
        "name": "Lome Container Terminal",
        "country": "TGO",
        "sectors": "ports",
        "status": "commissioned",
        "location_precision": "exact"
      }
    },
    {
      "type": "Feature",
      "geometry": {
        "type": "Point",
        "coordinates": [
          -23.214,
          15.138
        ]
      },
      "properties": {
        "id": "wba_prj_01HREAL099",
        "name": "Porto Ingles Modernisation",
        "country": "CPV",
        "sectors": "ports",
        "status": "commissioned",
        "location_precision": "exact"
      }
    },
    {
      "type": "Feature",
      "geometry": {
        "type": "Point",
        "coordinates": [
          -15.9,
          23.7
        ]
      },
      "properties": {
        "id": "wba_prj_01HREAL100",
        "name": "Dakhla Atlantic Port",
        "country": "ESH",
        "sectors": "ports",
        "status": "construction_started",
        "location_precision": "exact"
      }
    },
    {
      "type": "Feature",
      "geometry": null,
      "properties": {
        "id": "wba_prj_01HREAL101",
        "name": "El Dabaa Nuclear Power Plant",
        "country": "EGY",
        "sectors": "other",
        "status": "commissioned",
        "location_precision": "country"
      }
    },
    {
      "type": "Feature",
      "geometry": null,
      "properties": {
        "id": "wba_prj_01HREAL102",
        "name": "Egypt High-Speed Rail 2000km",
        "country": "EGY",
        "sectors": "railways",
        "status": "commissioned",
        "location_precision": "country"
      }
    },
    {
      "type": "Feature",
      "geometry": null,
      "properties": {
        "id": "wba_prj_01HREAL103",
        "name": "Lekki Deep Sea Port",
        "country": "NGA",
        "sectors": "ports",
        "status": "commissioned",
        "location_precision": "country"
      }
    },
    {
      "type": "Feature",
      "geometry": null,
      "properties": {
        "id": "wba_prj_01HREAL104",
        "name": "Zungeru Hydropower 700MW",
        "country": "NGA",
        "sectors": "hydropower",
        "status": "commissioned",
        "location_precision": "country"
      }
    },
    {
      "type": "Feature",
      "geometry": null,
      "properties": {
        "id": "wba_prj_01HREAL105",
        "name": "Nachtigal Hydropower 420MW",
        "country": "CMR",
        "sectors": "hydropower",
        "status": "commissioned",
        "location_precision": "country"
      }
    },
    {
      "type": "Feature",
      "geometry": null,
      "properties": {
        "id": "wba_prj_01HREAL106",
        "name": "Koysha Hydropower 2200MW",
        "country": "ETH",
        "sectors": "hydropower",
        "status": "commissioned",
        "location_precision": "country"
      }
    },
    {
      "type": "Feature",
      "geometry": null,
      "properties": {
        "id": "wba_prj_01HREAL107",
        "name": "Second River Niger Bridge",
        "country": "NGA",
        "sectors": "bridges",
        "status": "commissioned",
        "location_precision": "country"
      }
    },
    {
      "type": "Feature",
      "geometry": null,
      "properties": {
        "id": "wba_prj_01HREAL108",
        "name": "Antonio Agostinho Neto Airport Luanda",
        "country": "AGO",
        "sectors": "airports",
        "status": "commissioned",
        "location_precision": "country"
      }
    },
    {
      "type": "Feature",
      "geometry": null,
      "properties": {
        "id": "wba_prj_01HREAL109",
        "name": "Henri Konan Bedie Bridge",
        "country": "CIV",
        "sectors": "bridges",
        "status": "commissioned",
        "location_precision": "country"
      }
    },
    {
      "type": "Feature",
      "geometry": null,
      "properties": {
        "id": "wba_prj_01HREAL110",
        "name": "Isimba Hydropower 183MW",
        "country": "UGA",
        "sectors": "hydropower",
        "status": "commissioned",
        "location_precision": "country"
      }
    },
    {
      "type": "Feature",
      "geometry": null,
      "properties": {
        "id": "wba_prj_01HREAL111",
        "name": "Lagos Blue Line 27km",
        "country": "NGA",
        "sectors": "public_transport",
        "status": "commissioned",
        "location_precision": "country"
      }
    },
    {
      "type": "Feature",
      "geometry": null,
      "properties": {
        "id": "wba_prj_01HREAL112",
        "name": "Algiers Metro Line 1",
        "country": "DZA",
        "sectors": "public_transport",
        "status": "commissioned",
        "location_precision": "country"
      }
    },
    {
      "type": "Feature",
      "geometry": null,
      "properties": {
        "id": "wba_prj_01HREAL113",
        "name": "Memve'ele Hydropower 211MW",
        "country": "CMR",
        "sectors": "hydropower",
        "status": "commissioned",
        "location_precision": "country"
      }
    },
    {
      "type": "Feature",
      "geometry": null,
      "properties": {
        "id": "wba_prj_01HREAL114",
        "name": "Lagos-Ibadan Railway 157km",
        "country": "NGA",
        "sectors": "railways",
        "status": "commissioned",
        "location_precision": "country"
      }
    },
    {
      "type": "Feature",
      "geometry": null,
      "properties": {
        "id": "wba_prj_01HREAL115",
        "name": "Benban Solar Park 390MW",
        "country": "EGY",
        "sectors": "solar_power",
        "status": "commissioned",
        "location_precision": "country"
      }
    },
    {
      "type": "Feature",
      "geometry": null,
      "properties": {
        "id": "wba_prj_01HREAL116",
        "name": "Tanger Med Port Complex",
        "country": "MAR",
        "sectors": "ports",
        "status": "commissioned",
        "location_precision": "country"
      }
    },
    {
      "type": "Feature",
      "geometry": null,
      "properties": {
        "id": "wba_prj_01HREAL117",
        "name": "Casablanca Tramway",
        "country": "MAR",
        "sectors": "public_transport",
        "status": "commissioned",
        "location_precision": "country"
      }
    },
    {
      "type": "Feature",
      "geometry": null,
      "properties": {
        "id": "wba_prj_01HREAL118",
        "name": "Kotoka Airport Terminal 3",
        "country": "GHA",
        "sectors": "airports",
        "status": "commissioned",
        "location_precision": "country"
      }
    },
    {
      "type": "Feature",
      "geometry": null,
      "properties": {
        "id": "wba_prj_01HREAL119",
        "name": "Medupi Power Station 4800MW",
        "country": "ZAF",
        "sectors": "other",
        "status": "commissioned",
        "location_precision": "country"
      }
    },
    {
      "type": "Feature",
      "geometry": null,
      "properties": {
        "id": "wba_prj_01HREAL120",
        "name": "Gibe III Hydropower 1870MW",
        "country": "ETH",
        "sectors": "hydropower",
        "status": "commissioned",
        "location_precision": "country"
      }
    },
    {
      "type": "Feature",
      "geometry": null,
      "properties": {
        "id": "wba_prj_01HREAL121",
        "name": "Souapiti Hydropower 450MW",
        "country": "GIN",
        "sectors": "hydropower",
        "status": "commissioned",
        "location_precision": "country"
      }
    },
    {
      "type": "Feature",
      "geometry": null,
      "properties": {
        "id": "wba_prj_01HREAL122",
        "name": "Kaleta Hydropower 240MW",
        "country": "GIN",
        "sectors": "hydropower",
        "status": "commissioned",
        "location_precision": "country"
      }
    },
    {
      "type": "Feature",
      "geometry": null,
      "properties": {
        "id": "wba_prj_01HREAL123",
        "name": "Rusumo Falls Hydropower 80MW",
        "country": "RWA",
        "sectors": "hydropower",
        "status": "commissioned",
        "location_precision": "country"
      }
    },
    {
      "type": "Feature",
      "geometry": null,
      "properties": {
        "id": "wba_prj_01HREAL124",
        "name": "Julius Nyerere Airport Terminal 3",
        "country": "TZA",
        "sectors": "airports",
        "status": "commissioned",
        "location_precision": "country"
      }
    },
    {
      "type": "Feature",
      "geometry": null,
      "properties": {
        "id": "wba_prj_01HREAL125",
        "name": "Kinguele Aval Hydropower 35MW",
        "country": "GAB",
        "sectors": "hydropower",
        "status": "commissioned",
        "location_precision": "country"
      }
    },
    {
      "type": "Feature",
      "geometry": null,
      "properties": {
        "id": "wba_prj_01HREAL126",
        "name": "Dar es Salaam BRT Phase 1",
        "country": "TZA",
        "sectors": "public_transport",
        "status": "commissioned",
        "location_precision": "country"
      }
    },
    {
      "type": "Feature",
      "geometry": null,
      "properties": {
        "id": "wba_prj_01HREAL127",
        "name": "Abuja-Kaduna Railway 186.5km",
        "country": "NGA",
        "sectors": "railways",
        "status": "commissioned",
        "location_precision": "country"
      }
    },
    {
      "type": "Feature",
      "geometry": null,
      "properties": {
        "id": "wba_prj_01HREAL128",
        "name": "Nairobi-Nakuru-Mau Summit Highway",
        "country": "KEN",
        "sectors": "roads",
        "status": "commissioned",
        "location_precision": "country"
      }
    },
    {
      "type": "Feature",
      "geometry": null,
      "properties": {
        "id": "wba_prj_01HREAL129",
        "name": "Diamniadio Olympic Stadium 50000",
        "country": "SEN",
        "sectors": "other",
        "status": "commissioned",
        "location_precision": "country"
      }
    },
    {
      "type": "Feature",
      "geometry": null,
      "properties": {
        "id": "wba_prj_01HREAL130",
        "name": "Autoroute de l'Avenir 42.5km",
        "country": "SEN",
        "sectors": "roads",
        "status": "commissioned",
        "location_precision": "country"
      }
    },
    {
      "type": "Feature",
      "geometry": null,
      "properties": {
        "id": "wba_prj_01HREAL131",
        "name": "Lusaka-Ndola Dual Carriageway 321km",
        "country": "ZMB",
        "sectors": "roads",
        "status": "commissioned",
        "location_precision": "country"
      }
    },
    {
      "type": "Feature",
      "geometry": null,
      "properties": {
        "id": "wba_prj_01HREAL132",
        "name": "Kusile Power Station 4800MW",
        "country": "ZAF",
        "sectors": "other",
        "status": "commissioned",
        "location_precision": "country"
      }
    },
    {
      "type": "Feature",
      "geometry": null,
      "properties": {
        "id": "wba_prj_01HREAL133",
        "name": "Cairo Light Rail Transit 70km",
        "country": "EGY",
        "sectors": "public_transport",
        "status": "commissioned",
        "location_precision": "country"
      }
    },
    {
      "type": "Feature",
      "geometry": null,
      "properties": {
        "id": "wba_prj_01HREAL134",
        "name": "Cairo Monorail 99km",
        "country": "EGY",
        "sectors": "public_transport",
        "status": "commissioned",
        "location_precision": "country"
      }
    },
    {
      "type": "Feature",
      "geometry": null,
      "properties": {
        "id": "wba_prj_01HREAL135",
        "name": "Al Boraq Tangier-Kenitra HSR 323km",
        "country": "MAR",
        "sectors": "railways",
        "status": "commissioned",
        "location_precision": "country"
      }
    },
    {
      "type": "Feature",
      "geometry": null,
      "properties": {
        "id": "wba_prj_01HREAL136",
        "name": "Kano-Maradi Railway 384km",
        "country": "NGA",
        "sectors": "railways",
        "status": "commissioned",
        "location_precision": "country"
      }
    },
    {
      "type": "Feature",
      "geometry": null,
      "properties": {
        "id": "wba_prj_01HREAL137",
        "name": "Port of Cotonou Extension",
        "country": "BEN",
        "sectors": "ports",
        "status": "commissioned",
        "location_precision": "country"
      }
    },
    {
      "type": "Feature",
      "geometry": null,
      "properties": {
        "id": "wba_prj_01HREAL138",
        "name": "Tanzania SGR Phase 1 Dar-Morogoro 205km",
        "country": "TZA",
        "sectors": "railways",
        "status": "commissioned",
        "location_precision": "country"
      }
    },
    {
      "type": "Feature",
      "geometry": null,
      "properties": {
        "id": "wba_prj_01HREAL139",
        "name": "Nador West Med Port",
        "country": "MAR",
        "sectors": "ports",
        "status": "commissioned",
        "location_precision": "country"
      }
    },
    {
      "type": "Feature",
      "geometry": null,
      "properties": {
        "id": "wba_prj_01HREAL140",
        "name": "Singrobo-Ahouaty 44MW",
        "country": "CIV",
        "sectors": "hydropower",
        "status": "commissioned",
        "location_precision": "country"
      }
    },
    {
      "type": "Feature",
      "geometry": null,
      "properties": {
        "id": "wba_prj_01HREAL141",
        "name": "Azura-Edo IPP 459MW",
        "country": "NGA",
        "sectors": "other",
        "status": "commissioned",
        "location_precision": "country"
      }
    },
    {
      "type": "Feature",
      "geometry": null,
      "properties": {
        "id": "wba_prj_01HREAL142",
        "name": "Berbera Port Expansion 400m",
        "country": "SOM",
        "sectors": "ports",
        "status": "commissioned",
        "location_precision": "country"
      }
    },
    {
      "type": "Feature",
      "geometry": null,
      "properties": {
        "id": "wba_prj_01HREAL143",
        "name": "Itezhi-Tezhi 120MW",
        "country": "ZMB",
        "sectors": "hydropower",
        "status": "commissioned",
        "location_precision": "country"
      }
    },
    {
      "type": "Feature",
      "geometry": null,
      "properties": {
        "id": "wba_prj_01HREAL144",
        "name": "Ashegoda Wind Farm 120MW",
        "country": "ETH",
        "sectors": "wind_power",
        "status": "commissioned",
        "location_precision": "country"
      }
    },
    {
      "type": "Feature",
      "geometry": null,
      "properties": {
        "id": "wba_prj_01HREAL145",
        "name": "Safi Independent Power Plant 1386MW",
        "country": "MAR",
        "sectors": "other",
        "status": "commissioned",
        "location_precision": "country"
      }
    },
    {
      "type": "Feature",
      "geometry": null,
      "properties": {
        "id": "wba_prj_01HREAL146",
        "name": "Kpone IPP 350MW",
        "country": "GHA",
        "sectors": "other",
        "status": "commissioned",
        "location_precision": "country"
      }
    },
    {
      "type": "Feature",
      "geometry": null,
      "properties": {
        "id": "wba_prj_01HREAL147",
        "name": "Bujagali Hydropower 250MW",
        "country": "UGA",
        "sectors": "hydropower",
        "status": "commissioned",
        "location_precision": "country"
      }
    },
    {
      "type": "Feature",
      "geometry": null,
      "properties": {
        "id": "wba_prj_01HREAL148",
        "name": "Rabat-Sale Tramway 19.5km",
        "country": "MAR",
        "sectors": "public_transport",
        "status": "commissioned",
        "location_precision": "country"
      }
    },
    {
      "type": "Feature",
      "geometry": null,
      "properties": {
        "id": "wba_prj_01HREAL149",
        "name": "Karimenu II Dam Water Supply",
        "country": "KEN",
        "sectors": "dams",
        "status": "commissioned",
        "location_precision": "country"
      }
    },
    {
      "type": "Feature",
      "geometry": null,
      "properties": {
        "id": "wba_prj_01HREAL150",
        "name": "Taiba N'Diaye Wind Farm 158.7MW",
        "country": "SEN",
        "sectors": "wind_power",
        "status": "commissioned",
        "location_precision": "country"
      }
    },
    {
      "type": "Feature",
      "geometry": null,
      "properties": {
        "id": "wba_prj_01HREAL151",
        "name": "Kipeto Wind Farm 100MW",
        "country": "KEN",
        "sectors": "wind_power",
        "status": "commissioned",
        "location_precision": "country"
      }
    },
    {
      "type": "Feature",
      "geometry": null,
      "properties": {
        "id": "wba_prj_01HREAL152",
        "name": "Reppie Waste-to-Energy Plant 25MW",
        "country": "ETH",
        "sectors": "other",
        "status": "commissioned",
        "location_precision": "country"
      }
    },
    {
      "type": "Feature",
      "geometry": null,
      "properties": {
        "id": "wba_prj_01HREAL153",
        "name": "Mozambique LNG Area 1 13.1mtpa",
        "country": "MOZ",
        "sectors": "oil_gas",
        "status": "commissioned",
        "location_precision": "country"
      }
    },
    {
      "type": "Feature",
      "geometry": null,
      "properties": {
        "id": "wba_prj_01HREAL154",
        "name": "Coral South FLNG 3.4mtpa",
        "country": "MOZ",
        "sectors": "oil_gas",
        "status": "commissioned",
        "location_precision": "country"
      }
    },
    {
      "type": "Feature",
      "geometry": null,
      "properties": {
        "id": "wba_prj_01HREAL155",
        "name": "Mambilla Hydropower 3050MW",
        "country": "NGA",
        "sectors": "hydropower",
        "status": "commissioned",
        "location_precision": "country"
      }
    },
    {
      "type": "Feature",
      "geometry": null,
      "properties": {
        "id": "wba_prj_01HREAL156",
        "name": "Ingula Pumped Storage Scheme 1332MW",
        "country": "ZAF",
        "sectors": "hydropower",
        "status": "commissioned",
        "location_precision": "country"
      }
    },
    {
      "type": "Feature",
      "geometry": null,
      "properties": {
        "id": "wba_prj_01HREAL157",
        "name": "Angola LNG Plant Soyo 5.2mtpa",
        "country": "AGO",
        "sectors": "oil_gas",
        "status": "commissioned",
        "location_precision": "country"
      }
    },
    {
      "type": "Feature",
      "geometry": null,
      "properties": {
        "id": "wba_prj_01HREAL158",
        "name": "Dangote Petroleum Refinery 650kbd",
        "country": "NGA",
        "sectors": "oil_gas",
        "status": "commissioned",
        "location_precision": "country"
      }
    },
    {
      "type": "Feature",
      "geometry": null,
      "properties": {
        "id": "wba_prj_01HREAL159",
        "name": "Konza Technopolis 400kV Isinya-Konza TL",
        "country": "KEN",
        "sectors": "transmission",
        "status": "commissioned",
        "location_precision": "country"
      }
    },
    {
      "type": "Feature",
      "geometry": null,
      "properties": {
        "id": "wba_prj_01HREAL160",
        "name": "KivuWatt Methane Power Plant 26MW",
        "country": "RWA",
        "sectors": "other",
        "status": "commissioned",
        "location_precision": "country"
      }
    },
    {
      "type": "Feature",
      "geometry": null,
      "properties": {
        "id": "wba_prj_01HREAL161",
        "name": "Nyabarongo I Hydropower 28MW",
        "country": "RWA",
        "sectors": "hydropower",
        "status": "commissioned",
        "location_precision": "country"
      }
    },
    {
      "type": "Feature",
      "geometry": null,
      "properties": {
        "id": "wba_prj_01HREAL162",
        "name": "Grand Poubara Hydropower 160MW",
        "country": "GAB",
        "sectors": "hydropower",
        "status": "commissioned",
        "location_precision": "country"
      }
    },
    {
      "type": "Feature",
      "geometry": null,
      "properties": {
        "id": "wba_prj_01HREAL163",
        "name": "Maamba Coal Power Plant 300MW",
        "country": "ZMB",
        "sectors": "other",
        "status": "commissioned",
        "location_precision": "country"
      }
    },
    {
      "type": "Feature",
      "geometry": null,
      "properties": {
        "id": "wba_prj_01HREAL164",
        "name": "Pwalugu Multipurpose Dam 60MW",
        "country": "GHA",
        "sectors": "dams",
        "status": "commissioned",
        "location_precision": "country"
      }
    },
    {
      "type": "Feature",
      "geometry": null,
      "properties": {
        "id": "wba_prj_01HREAL165",
        "name": "Greater Tortue Ahmeyim GTA LNG FPSO",
        "country": "SEN",
        "sectors": "oil_gas",
        "status": "commissioned",
        "location_precision": "country"
      }
    },
    {
      "type": "Feature",
      "geometry": null,
      "properties": {
        "id": "wba_prj_01HREAL166",
        "name": "Kigali Bulk Water Supply 40000m3/day",
        "country": "RWA",
        "sectors": "water_supply",
        "status": "commissioned",
        "location_precision": "country"
      }
    },
    {
      "type": "Feature",
      "geometry": null,
      "properties": {
        "id": "wba_prj_01HREAL167",
        "name": "Nairobi Western Bypass 15.5km",
        "country": "KEN",
        "sectors": "roads",
        "status": "commissioned",
        "location_precision": "country"
      }
    },
    {
      "type": "Feature",
      "geometry": null,
      "properties": {
        "id": "wba_prj_01HREAL168",
        "name": "Addis Ababa-Adama Expressway Phase I 80km",
        "country": "ETH",
        "sectors": "roads",
        "status": "commissioned",
        "location_precision": "country"
      }
    },
    {
      "type": "Feature",
      "geometry": null,
      "properties": {
        "id": "wba_prj_01HREAL169",
        "name": "Isiolo-Moyale Highway A2",
        "country": "KEN",
        "sectors": "roads",
        "status": "commissioned",
        "location_precision": "country"
      }
    },
    {
      "type": "Feature",
      "geometry": null,
      "properties": {
        "id": "wba_prj_01HREAL170",
        "name": "Jorf Lasfar Power Extension Units 5-6 700MW",
        "country": "MAR",
        "sectors": "other",
        "status": "commissioned",
        "location_precision": "country"
      }
    },
    {
      "type": "Feature",
      "geometry": null,
      "properties": {
        "id": "wba_prj_01HREAL171",
        "name": "Tarfaya Wind Farm 301MW",
        "country": "MAR",
        "sectors": "wind_power",
        "status": "commissioned",
        "location_precision": "country"
      }
    },
    {
      "type": "Feature",
      "geometry": null,
      "properties": {
        "id": "wba_prj_01HREAL172",
        "name": "Inga II Hydropower Rehabilitation 1424MW",
        "country": "COD",
        "sectors": "hydropower",
        "status": "commissioned",
        "location_precision": "country"
      }
    },
    {
      "type": "Feature",
      "geometry": null,
      "properties": {
        "id": "wba_prj_01HREAL173",
        "name": "Chambishi Multi-Facility Economic Zone",
        "country": "ZMB",
        "sectors": "industrial_parks",
        "status": "commissioned",
        "location_precision": "country"
      }
    },
    {
      "type": "Feature",
      "geometry": null,
      "properties": {
        "id": "wba_prj_01HREAL174",
        "name": "Garissa Solar Power Plant 55MW",
        "country": "KEN",
        "sectors": "solar_power",
        "status": "commissioned",
        "location_precision": "country"
      }
    },
    {
      "type": "Feature",
      "geometry": null,
      "properties": {
        "id": "wba_prj_01HREAL175",
        "name": "Tatu City SEZ 5000-acre",
        "country": "KEN",
        "sectors": "housing",
        "status": "commissioned",
        "location_precision": "country"
      }
    },
    {
      "type": "Feature",
      "geometry": null,
      "properties": {
        "id": "wba_prj_01HREAL176",
        "name": "Central African Backbone Fiber Phase 1",
        "country": "CMR",
        "sectors": "telecommunications",
        "status": "commissioned",
        "location_precision": "country"
      }
    },
    {
      "type": "Feature",
      "geometry": null,
      "properties": {
        "id": "wba_prj_01HREAL177",
        "name": "Polihali Dam LHWP Phase II 165m",
        "country": "LSO",
        "sectors": "dams",
        "status": "commissioned",
        "location_precision": "country"
      }
    },
    {
      "type": "Feature",
      "geometry": null,
      "properties": {
        "id": "wba_prj_01HREAL178",
        "name": "Aftout Essahli Water Supply Expansion Nouakchott",
        "country": "MRT",
        "sectors": "water_supply",
        "status": "commissioned",
        "location_precision": "country"
      }
    },
    {
      "type": "Feature",
      "geometry": null,
      "properties": {
        "id": "wba_prj_01HREAL179",
        "name": "Kribi Gas-Fired Power Plant 216MW",
        "country": "CMR",
        "sectors": "other",
        "status": "commissioned",
        "location_precision": "country"
      }
    },
    {
      "type": "Feature",
      "geometry": null,
      "properties": {
        "id": "wba_prj_01HREAL180",
        "name": "Cairo Metro Line 3 Phase 3 17.7km",
        "country": "EGY",
        "sectors": "public_transport",
        "status": "commissioned",
        "location_precision": "country"
      }
    },
    {
      "type": "Feature",
      "geometry": null,
      "properties": {
        "id": "wba_prj_01HREAL181",
        "name": "Romainville Solar PV 5MW",
        "country": "SYC",
        "sectors": "solar_power",
        "status": "commissioned",
        "location_precision": "country"
      }
    },
    {
      "type": "Feature",
      "geometry": null,
      "properties": {
        "id": "wba_prj_01HREAL182",
        "name": "Karpowership Freetown 65MW",
        "country": "SLE",
        "sectors": "other",
        "status": "commissioned",
        "location_precision": "country"
      }
    },
    {
      "type": "Feature",
      "geometry": null,
      "properties": {
        "id": "wba_prj_01HREAL183",
        "name": "Ruzizi III Hydropower 147MW",
        "country": "BDI",
        "sectors": "hydropower",
        "status": "commissioned",
        "location_precision": "country"
      }
    },
    {
      "type": "Feature",
      "geometry": null,
      "properties": {
        "id": "wba_prj_01HREAL184",
        "name": "Dekemhare Solar Plant 30MW",
        "country": "ERI",
        "sectors": "solar_power",
        "status": "commissioned",
        "location_precision": "country"
      }
    },
    {
      "type": "Feature",
      "geometry": null,
      "properties": {
        "id": "wba_prj_01HREAL185",
        "name": "Ghoubet Wind Farm 60MW",
        "country": "DJI",
        "sectors": "wind_power",
        "status": "commissioned",
        "location_precision": "country"
      }
    },
    {
      "type": "Feature",
      "geometry": null,
      "properties": {
        "id": "wba_prj_01HREAL186",
        "name": "Aysha Wind Farm 120MW",
        "country": "ETH",
        "sectors": "wind_power",
        "status": "commissioned",
        "location_precision": "country"
      }
    },
    {
      "type": "Feature",
      "geometry": null,
      "properties": {
        "id": "wba_prj_01HREAL187",
        "name": "Toshka Mubarak Pumping Station 21-pump",
        "country": "EGY",
        "sectors": "water_supply",
        "status": "commissioned",
        "location_precision": "country"
      }
    },
    {
      "type": "Feature",
      "geometry": null,
      "properties": {
        "id": "wba_prj_01HREAL188",
        "name": "Atuabo Gas Processing Plant 150mmscfd",
        "country": "GHA",
        "sectors": "oil_gas",
        "status": "commissioned",
        "location_precision": "country"
      }
    },
    {
      "type": "Feature",
      "geometry": null,
      "properties": {
        "id": "wba_prj_01HREAL189",
        "name": "NLNG Train 7 Bonny Island 8mtpa",
        "country": "NGA",
        "sectors": "oil_gas",
        "status": "commissioned",
        "location_precision": "country"
      }
    },
    {
      "type": "Feature",
      "geometry": null,
      "properties": {
        "id": "wba_prj_01HREAL190",
        "name": "Redstone CSP 100MW Tower",
        "country": "ZAF",
        "sectors": "solar_power",
        "status": "commissioned",
        "location_precision": "country"
      }
    },
    {
      "type": "Feature",
      "geometry": null,
      "properties": {
        "id": "wba_prj_01HREAL191",
        "name": "Rades Combined Cycle 471MW",
        "country": "TUN",
        "sectors": "other",
        "status": "commissioned",
        "location_precision": "country"
      }
    },
    {
      "type": "Feature",
      "geometry": null,
      "properties": {
        "id": "wba_prj_01HREAL192",
        "name": "Tilenga Central Processing Facility 190kbpd",
        "country": "UGA",
        "sectors": "oil_gas",
        "status": "commissioned",
        "location_precision": "country"
      }
    },
    {
      "type": "Feature",
      "geometry": null,
      "properties": {
        "id": "wba_prj_01HREAL193",
        "name": "Cabinda Refinery 60kbpd Phase I",
        "country": "AGO",
        "sectors": "oil_gas",
        "status": "commissioned",
        "location_precision": "country"
      }
    },
    {
      "type": "Feature",
      "geometry": null,
      "properties": {
        "id": "wba_prj_01HREAL194",
        "name": "Tobene IPP 96MW",
        "country": "SEN",
        "sectors": "other",
        "status": "commissioned",
        "location_precision": "country"
      }
    },
    {
      "type": "Feature",
      "geometry": null,
      "properties": {
        "id": "wba_prj_01HREAL195",
        "name": "Azito Thermal Power Plant Phase IV 253MW",
        "country": "CIV",
        "sectors": "other",
        "status": "commissioned",
        "location_precision": "country"
      }
    },
    {
      "type": "Feature",
      "geometry": null,
      "properties": {
        "id": "wba_prj_01HREAL196",
        "name": "Amaria Hydropower Dam 300MW",
        "country": "GIN",
        "sectors": "hydropower",
        "status": "commissioned",
        "location_precision": "country"
      }
    },
    {
      "type": "Feature",
      "geometry": null,
      "properties": {
        "id": "wba_prj_01HREAL197",
        "name": "Sendje Hydropower Plant 200MW",
        "country": "GNQ",
        "sectors": "hydropower",
        "status": "commissioned",
        "location_precision": "country"
      }
    },
    {
      "type": "Feature",
      "geometry": null,
      "properties": {
        "id": "wba_prj_01HREAL198",
        "name": "Singida Wind Farm 100MW Phase I",
        "country": "TZA",
        "sectors": "wind_power",
        "status": "commissioned",
        "location_precision": "country"
      }
    },
    {
      "type": "Feature",
      "geometry": null,
      "properties": {
        "id": "wba_prj_01HREAL199",
        "name": "Malagarasi Hydropower 32.5MW",
        "country": "TZA",
        "sectors": "hydropower",
        "status": "commissioned",
        "location_precision": "country"
      }
    },
    {
      "type": "Feature",
      "geometry": null,
      "properties": {
        "id": "wba_prj_01HREAL200",
        "name": "Mombasa Port Second Container Terminal Phase 2 Distinct",
        "country": "KEN",
        "sectors": "ports",
        "status": "commissioned",
        "location_precision": "country"
      }
    },
    {
      "type": "Feature",
      "geometry": {
        "type": "Point",
        "coordinates": [
          2.32,
          6.45
        ]
      },
      "properties": {
        "id": "wba_prj_01HREAL201",
        "name": "Glo-Djigbe International Airport",
        "country": "BEN",
        "sectors": "airports",
        "status": "construction_started",
        "location_precision": "exact"
      }
    },
    {
      "type": "Feature",
      "geometry": null,
      "properties": {
        "id": "wba_prj_01HREAL202",
        "name": "Ouagadougou-Bobo-Dioulasso Highway",
        "country": "BFA",
        "sectors": "roads",
        "status": "proposed",
        "location_precision": "corridor",
        "geom_wkt": "LINESTRING( -1.52 12.36, -4.29 11.18)"
      }
    },
    {
      "type": "Feature",
      "geometry": null,
      "properties": {
        "id": "wba_prj_01HREAL203",
        "name": "Pointe-Noire-Brazzaville Road RN1 Phase 2 Distinct",
        "country": "COG",
        "sectors": "roads",
        "status": "commissioned",
        "location_precision": "corridor",
        "geom_wkt": "LINESTRING(11.88 -4.77, 15.27 -4.26)"
      }
    },
    {
      "type": "Feature",
      "geometry": {
        "type": "Point",
        "coordinates": [
          43.73,
          -12.33
        ]
      },
      "properties": {
        "id": "wba_prj_01HREAL204",
        "name": "Moheli Island Ring Road Section",
        "country": "COM",
        "sectors": "roads",
        "status": "construction_started",
        "location_precision": "approximate"
      }
    },
    {
      "type": "Feature",
      "geometry": {
        "type": "Point",
        "coordinates": [
          -16.57,
          13.45
        ]
      },
      "properties": {
        "id": "wba_prj_01HREAL205",
        "name": "Banjul Port Fourth Generation Expansion",
        "country": "GMB",
        "sectors": "ports",
        "status": "construction_started",
        "location_precision": "exact"
      }
    },
    {
      "type": "Feature",
      "geometry": {
        "type": "Point",
        "coordinates": [
          -15.58,
          11.86
        ]
      },
      "properties": {
        "id": "wba_prj_01HREAL206",
        "name": "Port of Bissau Rehabilitation",
        "country": "GNB",
        "sectors": "ports",
        "status": "proposed",
        "location_precision": "exact"
      }
    },
    {
      "type": "Feature",
      "geometry": {
        "type": "Point",
        "coordinates": [
          -10.63,
          6.33
        ]
      },
      "properties": {
        "id": "wba_prj_01HREAL207",
        "name": "Mount Coffee Hydropower Extension 88MW",
        "country": "LBR",
        "sectors": "hydropower",
        "status": "proposed",
        "location_precision": "exact"
      }
    },
    {
      "type": "Feature",
      "geometry": {
        "type": "Point",
        "coordinates": [
          15.08,
          32.37
        ]
      },
      "properties": {
        "id": "wba_prj_01HREAL208",
        "name": "Misrata Free Zone Port Expansion",
        "country": "LBY",
        "sectors": "ports",
        "status": "construction_started",
        "location_precision": "exact"
      }
    },
    {
      "type": "Feature",
      "geometry": null,
      "properties": {
        "id": "wba_prj_01HREAL209",
        "name": "Bamako-Bure Road Mali Section",
        "country": "MLI",
        "sectors": "roads",
        "status": "construction_started",
        "location_precision": "corridor",
        "geom_wkt": "LINESTRING(-8.00 12.64, -11.44 10.54)"
      }
    },
    {
      "type": "Feature",
      "geometry": {
        "type": "Point",
        "coordinates": [
          18.55,
          4.36
        ]
      },
      "properties": {
        "id": "wba_prj_01HREAL210",
        "name": "Bangui River Port Modernization",
        "country": "CAF",
        "sectors": "ports",
        "status": "proposed",
        "location_precision": "exact"
      }
    },
    {
      "type": "Feature",
      "geometry": null,
      "properties": {
        "id": "wba_prj_01HREAL211",
        "name": "Madagascar Antananarivo Toamasina Highway",
        "country": "MDG",
        "sectors": "roads",
        "status": "proposed",
        "location_precision": "corridor",
        "geom_wkt": "LINESTRING(47.52 -18.88, 49.38 -18.15)"
      }
    },
    {
      "type": "Feature",
      "geometry": {
        "type": "Point",
        "coordinates": [
          -16.02,
          15.94
        ]
      },
      "properties": {
        "id": "wba_prj_01HREAL212",
        "name": "Nouakchott Port Extension Phase 2",
        "country": "MRT",
        "sectors": "ports",
        "status": "construction_started",
        "location_precision": "exact"
      }
    },
    {
      "type": "Feature",
      "geometry": {
        "type": "Point",
        "coordinates": [
          57.5,
          -20.16
        ]
      },
      "properties": {
        "id": "wba_prj_01HREAL213",
        "name": "Port Louis Harbour Expansion",
        "country": "MUS",
        "sectors": "ports",
        "status": "commissioned",
        "location_precision": "exact"
      }
    },
    {
      "type": "Feature",
      "geometry": {
        "type": "Point",
        "coordinates": [
          35.26,
          -14.48
        ]
      },
      "properties": {
        "id": "wba_prj_01HREAL214",
        "name": "Malawi Mangochi Water Supply",
        "country": "MWI",
        "sectors": "water_supply",
        "status": "construction_started",
        "location_precision": "exact"
      }
    },
    {
      "type": "Feature",
      "geometry": {
        "type": "Point",
        "coordinates": [
          14.5,
          -22.96
        ]
      },
      "properties": {
        "id": "wba_prj_01HREAL215",
        "name": "Walvis Bay Corridor Upgrade Namibia",
        "country": "NAM",
        "sectors": "roads",
        "status": "commissioned",
        "location_precision": "exact"
      }
    },
    {
      "type": "Feature",
      "geometry": {
        "type": "Point",
        "coordinates": [
          32.56,
          15.5
        ]
      },
      "properties": {
        "id": "wba_prj_01HREAL216",
        "name": "Khartoum New Bridge Sudan",
        "country": "SDN",
        "sectors": "bridges",
        "status": "proposed",
        "location_precision": "exact"
      }
    },
    {
      "type": "Feature",
      "geometry": {
        "type": "Point",
        "coordinates": [
          31.58,
          4.85
        ]
      },
      "properties": {
        "id": "wba_prj_01HREAL217",
        "name": "Juba Power Distribution South Sudan",
        "country": "SSD",
        "sectors": "transmission",
        "status": "construction_started",
        "location_precision": "exact"
      }
    },
    {
      "type": "Feature",
      "geometry": {
        "type": "Point",
        "coordinates": [
          6.71,
          0.38
        ]
      },
      "properties": {
        "id": "wba_prj_01HREAL218",
        "name": "Sao Tome Airport Modernization",
        "country": "STP",
        "sectors": "airports",
        "status": "proposed",
        "location_precision": "exact"
      }
    },
    {
      "type": "Feature",
      "geometry": {
        "type": "Point",
        "coordinates": [
          31.13,
          -26.31
        ]
      },
      "properties": {
        "id": "wba_prj_01HREAL219",
        "name": "Mbabane Bypass Swaziland",
        "country": "SWZ",
        "sectors": "roads",
        "status": "construction_started",
        "location_precision": "exact"
      }
    },
    {
      "type": "Feature",
      "geometry": {
        "type": "Point",
        "coordinates": [
          55.45,
          -4.62
        ]
      },
      "properties": {
        "id": "wba_prj_01HREAL220",
        "name": "Victoria Port Rehabilitation Seychelles",
        "country": "SYC",
        "sectors": "ports",
        "status": "proposed",
        "location_precision": "exact"
      }
    },
    {
      "type": "Feature",
      "geometry": {
        "type": "Point",
        "coordinates": [
          15.05,
          12.11
        ]
      },
      "properties": {
        "id": "wba_prj_01HREAL221",
        "name": "Ndjamena Water Treatment Chad",
        "country": "TCD",
        "sectors": "water_supply",
        "status": "construction_started",
        "location_precision": "exact"
      }
    },
    {
      "type": "Feature",
      "geometry": {
        "type": "Point",
        "coordinates": [
          1.22,
          6.13
        ]
      },
      "properties": {
        "id": "wba_prj_01HREAL222",
        "name": "Lome Bypass Togo",
        "country": "TGO",
        "sectors": "roads",
        "status": "proposed",
        "location_precision": "exact"
      }
    },
    {
      "type": "Feature",
      "geometry": null,
      "properties": {
        "id": "wba_prj_01HREAL223",
        "name": "Benin Cotton Road Second Phase",
        "country": "BEN",
        "sectors": "roads",
        "status": "commissioned",
        "location_precision": "corridor",
        "geom_wkt": "LINESTRING(2.32 6.45, 2.62 9.30)"
      }
    },
    {
      "type": "Feature",
      "geometry": {
        "type": "Point",
        "coordinates": [
          -1.52,
          12.36
        ]
      },
      "properties": {
        "id": "wba_prj_01HREAL224",
        "name": "Burkina Faso Zagtouli Solar Extension",
        "country": "BFA",
        "sectors": "solar_power",
        "status": "construction_started",
        "location_precision": "exact"
      }
    },
    {
      "type": "Feature",
      "geometry": {
        "type": "Point",
        "coordinates": [
          11.88,
          -4.77
        ]
      },
      "properties": {
        "id": "wba_prj_01HREAL225",
        "name": "Congo Occidental Port Pointe-Noire",
        "country": "COG",
        "sectors": "ports",
        "status": "proposed",
        "location_precision": "exact"
      }
    },
    {
      "type": "Feature",
      "geometry": {
        "type": "Point",
        "coordinates": [
          43.25,
          -11.7
        ]
      },
      "properties": {
        "id": "wba_prj_01HREAL226",
        "name": "Moroni Power Plant Comoros",
        "country": "COM",
        "sectors": "other",
        "status": "commissioned",
        "location_precision": "exact"
      }
    },
    {
      "type": "Feature",
      "geometry": {
        "type": "Point",
        "coordinates": [
          -16.65,
          13.27
        ]
      },
      "properties": {
        "id": "wba_prj_01HREAL227",
        "name": "Brikama Road Gambia",
        "country": "GMB",
        "sectors": "roads",
        "status": "commissioned",
        "location_precision": "exact"
      }
    },
    {
      "type": "Feature",
      "geometry": {
        "type": "Point",
        "coordinates": [
          -16.16,
          12.27
        ]
      },
      "properties": {
        "id": "wba_prj_01HREAL228",
        "name": "Cacheu Port Guinea-Bissau",
        "country": "GNB",
        "sectors": "ports",
        "status": "proposed",
        "location_precision": "exact"
      }
    },
    {
      "type": "Feature",
      "geometry": {
        "type": "Point",
        "coordinates": [
          -10.04,
          5.89
        ]
      },
      "properties": {
        "id": "wba_prj_01HREAL229",
        "name": "Buchanan Port Liberia",
        "country": "LBR",
        "sectors": "ports",
        "status": "proposed",
        "location_precision": "exact"
      }
    },
    {
      "type": "Feature",
      "geometry": {
        "type": "Point",
        "coordinates": [
          13.19,
          32.89
        ]
      },
      "properties": {
        "id": "wba_prj_01HREAL230",
        "name": "Tripoli Metro Libya",
        "country": "LBY",
        "sectors": "public_transport",
        "status": "proposed",
        "location_precision": "exact"
      }
    },
    {
      "type": "Feature",
      "geometry": {
        "type": "Point",
        "coordinates": [
          -17.04,
          20.91
        ]
      },
      "properties": {
        "id": "wba_prj_01HREAL231",
        "name": "Nouadhibou Port Expansion Mauritania",
        "country": "MRT",
        "sectors": "ports",
        "status": "proposed",
        "location_precision": "exact"
      }
    },
    {
      "type": "Feature",
      "geometry": {
        "type": "Point",
        "coordinates": [
          57.5,
          -20.17
        ]
      },
      "properties": {
        "id": "wba_prj_01HREAL232",
        "name": "Mauritius Light Rail Phase 2",
        "country": "MUS",
        "sectors": "public_transport",
        "status": "proposed",
        "location_precision": "exact"
      }
    },
    {
      "type": "Feature",
      "geometry": {
        "type": "Point",
        "coordinates": [
          33.78,
          -13.98
        ]
      },
      "properties": {
        "id": "wba_prj_01HREAL233",
        "name": "Lilongwe Water Project Malawi",
        "country": "MWI",
        "sectors": "water_supply",
        "status": "construction_started",
        "location_precision": "exact"
      }
    },
    {
      "type": "Feature",
      "geometry": {
        "type": "Point",
        "coordinates": [
          17.08,
          -22.56
        ]
      },
      "properties": {
        "id": "wba_prj_01HREAL234",
        "name": "Windhoek Bypass Namibia",
        "country": "NAM",
        "sectors": "roads",
        "status": "proposed",
        "location_precision": "exact"
      }
    },
    {
      "type": "Feature",
      "geometry": {
        "type": "Point",
        "coordinates": [
          34.38,
          11.8
        ]
      },
      "properties": {
        "id": "wba_prj_01HREAL235",
        "name": "Roseires Dam Heightening Sudan",
        "country": "SDN",
        "sectors": "hydropower",
        "status": "commissioned",
        "location_precision": "exact"
      }
    },
    {
      "type": "Feature",
      "geometry": null,
      "properties": {
        "id": "wba_prj_01HREAL236",
        "name": "Juba-Bor Road South Sudan",
        "country": "SSD",
        "sectors": "roads",
        "status": "construction_started",
        "location_precision": "corridor",
        "geom_wkt": "LINESTRING(31.58 4.85, 31.40 6.21)"
      }
    },
    {
      "type": "Feature",
      "geometry": {
        "type": "Point",
        "coordinates": [
          6.55,
          0.35
        ]
      },
      "properties": {
        "id": "wba_prj_01HREAL237",
        "name": "Neves Deep Port Sao Tome",
        "country": "STP",
        "sectors": "ports",
        "status": "proposed",
        "location_precision": "exact"
      }
    },
    {
      "type": "Feature",
      "geometry": {
        "type": "Point",
        "coordinates": [
          31.38,
          -26.49
        ]
      },
      "properties": {
        "id": "wba_prj_01HREAL238",
        "name": "Manzini Highway Eswatini",
        "country": "SWZ",
        "sectors": "roads",
        "status": "commissioned",
        "location_precision": "exact"
      }
    },
    {
      "type": "Feature",
      "geometry": {
        "type": "Point",
        "coordinates": [
          55.45,
          -4.62
        ]
      },
      "properties": {
        "id": "wba_prj_01HREAL239",
        "name": "Mahe Hospital Seychelles",
        "country": "SYC",
        "sectors": "hospitals",
        "status": "construction_started",
        "location_precision": "exact"
      }
    },
    {
      "type": "Feature",
      "geometry": {
        "type": "Point",
        "coordinates": [
          15.03,
          12.1
        ]
      },
      "properties": {
        "id": "wba_prj_01HREAL240",
        "name": "Ndjamena Bridge Chad",
        "country": "TCD",
        "sectors": "bridges",
        "status": "proposed",
        "location_precision": "exact"
      }
    },
    {
      "type": "Feature",
      "geometry": {
        "type": "Point",
        "coordinates": [
          1.26,
          6.13
        ]
      },
      "properties": {
        "id": "wba_prj_01HREAL241",
        "name": "Togo Lom\u00e9 Port 4th Berth",
        "country": "TGO",
        "sectors": "ports",
        "status": "commissioned",
        "location_precision": "exact"
      }
    },
    {
      "type": "Feature",
      "geometry": {
        "type": "Point",
        "coordinates": [
          2.42,
          6.36
        ]
      },
      "properties": {
        "id": "wba_prj_01HREAL242",
        "name": "Cotonou Flood Control Benin",
        "country": "BEN",
        "sectors": "water_supply",
        "status": "construction_started",
        "location_precision": "exact"
      }
    },
    {
      "type": "Feature",
      "geometry": {
        "type": "Point",
        "coordinates": [
          -4.29,
          11.18
        ]
      },
      "properties": {
        "id": "wba_prj_01HREAL243",
        "name": "Bobo Dioulasso Market Burkina",
        "country": "BFA",
        "sectors": "urban_development",
        "status": "commissioned",
        "location_precision": "exact"
      }
    },
    {
      "type": "Feature",
      "geometry": {
        "type": "Point",
        "coordinates": [
          15.27,
          -4.26
        ]
      },
      "properties": {
        "id": "wba_prj_01HREAL244",
        "name": "Brazzaville Conference Center Congo",
        "country": "COG",
        "sectors": "government_buildings",
        "status": "commissioned",
        "location_precision": "exact"
      }
    },
    {
      "type": "Feature",
      "geometry": {
        "type": "Point",
        "coordinates": [
          43.26,
          -11.64
        ]
      },
      "properties": {
        "id": "wba_prj_01HREAL245",
        "name": "Comoros Solar 10MW",
        "country": "COM",
        "sectors": "solar_power",
        "status": "proposed",
        "location_precision": "exact"
      }
    },
    {
      "type": "Feature",
      "geometry": {
        "type": "Point",
        "coordinates": [
          -15.59,
          13.56
        ]
      },
      "properties": {
        "id": "wba_prj_01HREAL246",
        "name": "Farafenni Bridge Gambia",
        "country": "GMB",
        "sectors": "bridges",
        "status": "commissioned",
        "location_precision": "exact"
      }
    },
    {
      "type": "Feature",
      "geometry": {
        "type": "Point",
        "coordinates": [
          -14.66,
          12.17
        ]
      },
      "properties": {
        "id": "wba_prj_01HREAL247",
        "name": "Bafata Hospital Guinea-Bissau",
        "country": "GNB",
        "sectors": "hospitals",
        "status": "proposed",
        "location_precision": "exact"
      }
    },
    {
      "type": "Feature",
      "geometry": {
        "type": "Point",
        "coordinates": [
          -9.04,
          5.01
        ]
      },
      "properties": {
        "id": "wba_prj_01HREAL248",
        "name": "Greenville Port Liberia",
        "country": "LBR",
        "sectors": "ports",
        "status": "proposed",
        "location_precision": "exact"
      }
    },
    {
      "type": "Feature",
      "geometry": {
        "type": "Point",
        "coordinates": [
          20.08,
          32.07
        ]
      },
      "properties": {
        "id": "wba_prj_01HREAL249",
        "name": "Benghazi Port Libya",
        "country": "LBY",
        "sectors": "ports",
        "status": "proposed",
        "location_precision": "exact"
      }
    },
    {
      "type": "Feature",
      "geometry": {
        "type": "Point",
        "coordinates": [
          -9.02,
          11.48
        ]
      },
      "properties": {
        "id": "wba_prj_01HREAL250",
        "name": "Kayes Solar Mali",
        "country": "MLI",
        "sectors": "solar_power",
        "status": "proposed",
        "location_precision": "exact"
      }
    }
  ],
  "_note": "SYNTHETIC if from samples; real data requires source-backed coords"
}