{
  "type": "FeatureCollection",
  "features": [
    {
      "type": "Feature",
      "geometry": {
        "type": "Point",
        "coordinates": [
          26.48,
          -18.383
        ]
      },
      "properties": {
        "id": "wba_prj_01HREAL001",
        "name": "Hwange Thermal Power Station Expansion Units 7 & 8",
        "country": "ZWE",
        "sectors": "other",
        "status": "commissioned",
        "location_precision": "exact"
      }
    },
    {
      "type": "Feature",
      "geometry": {
        "type": "Point",
        "coordinates": [
          28.761,
          -16.521
        ]
      },
      "properties": {
        "id": "wba_prj_01HREAL002",
        "name": "Kariba South Hydropower Station Expansion",
        "country": "ZWE",
        "sectors": "hydropower",
        "status": "commissioned",
        "location_precision": "exact"
      }
    },
    {
      "type": "Feature",
      "geometry": {
        "type": "Point",
        "coordinates": [
          31.092,
          -17.931
        ]
      },
      "properties": {
        "id": "wba_prj_01HREAL003",
        "name": "Robert Gabriel Mugabe International Airport Expansion",
        "country": "ZWE",
        "sectors": "airports",
        "status": "commissioned",
        "location_precision": "approximate"
      }
    },
    {
      "type": "Feature",
      "geometry": null,
      "properties": {
        "id": "wba_prj_01HREAL004",
        "name": "Nairobi Expressway",
        "country": "KEN",
        "sectors": "roads|urban_development",
        "status": "commissioned",
        "location_precision": "corridor",
        "geom_wkt": "LINESTRING(36.92 -1.31, 36.78 -1.28)"
      }
    },
    {
      "type": "Feature",
      "geometry": null,
      "properties": {
        "id": "wba_prj_01HREAL005",
        "name": "Mombasa\u2013Nairobi Standard Gauge Railway Phase 1",
        "country": "KEN",
        "sectors": "railways",
        "status": "commissioned",
        "location_precision": "corridor",
        "geom_wkt": "LINESTRING(39.66 -4.05, 36.82 -1.29)"
      }
    },
    {
      "type": "Feature",
      "geometry": {
        "type": "Point",
        "coordinates": [
          36.82,
          2.85
        ]
      },
      "properties": {
        "id": "wba_prj_01HREAL006",
        "name": "Lake Turkana Wind Power Project",
        "country": "KEN",
        "sectors": "wind_power",
        "status": "commissioned",
        "location_precision": "exact"
      }
    },
    {
      "type": "Feature",
      "geometry": null,
      "properties": {
        "id": "wba_prj_01HREAL007",
        "name": "Addis Ababa Light Rail Transit",
        "country": "ETH",
        "sectors": "public_transport|railways",
        "status": "commissioned",
        "location_precision": "corridor",
        "geom_wkt": "LINESTRING(38.78 8.98, 38.77 9.03)"
      }
    },
    {
      "type": "Feature",
      "geometry": null,
      "properties": {
        "id": "wba_prj_01HREAL008",
        "name": "Addis Ababa\u2013Djibouti Standard Gauge Railway",
        "country": "ETH",
        "sectors": "railways",
        "status": "commissioned",
        "location_precision": "corridor",
        "geom_wkt": "LINESTRING(38.74 9.03, 43.0 11.59)"
      }
    },
    {
      "type": "Feature",
      "geometry": {
        "type": "Point",
        "coordinates": [
          35.09,
          11.22
        ]
      },
      "properties": {
        "id": "wba_prj_01HREAL009",
        "name": "Grand Ethiopian Renaissance Dam",
        "country": "ETH",
        "sectors": "hydropower|dams",
        "status": "commissioned",
        "location_precision": "exact"
      }
    },
    {
      "type": "Feature",
      "geometry": {
        "type": "Point",
        "coordinates": [
          30.943,
          -17.689
        ]
      },
      "properties": {
        "id": "wba_prj_01HREAL010",
        "name": "New Parliament Building, Mount Hampden",
        "country": "ZWE",
        "sectors": "government_buildings",
        "status": "commissioned",
        "location_precision": "exact"
      }
    },
    {
      "type": "Feature",
      "geometry": {
        "type": "Point",
        "coordinates": [
          25.839,
          -18.096
        ]
      },
      "properties": {
        "id": "wba_prj_01HREAL011",
        "name": "Victoria Falls International Airport Expansion",
        "country": "ZWE",
        "sectors": "airports",
        "status": "commissioned",
        "location_precision": "exact"
      }
    },
    {
      "type": "Feature",
      "geometry": {
        "type": "Point",
        "coordinates": [
          37.095,
          -1.057
        ]
      },
      "properties": {
        "id": "wba_prj_01HREAL012",
        "name": "Kenya Advanced Institute of Science and Technology at Konza",
        "country": "KEN",
        "sectors": "schools|universities|telecommunications",
        "status": "proposed",
        "location_precision": "approximate"
      }
    },
    {
      "type": "Feature",
      "geometry": {
        "type": "Point",
        "coordinates": [
          40.91,
          -2.416
        ]
      },
      "properties": {
        "id": "wba_prj_01HREAL013",
        "name": "Lamu Port First Three Berths",
        "country": "KEN",
        "sectors": "ports",
        "status": "commissioned",
        "location_precision": "exact"
      }
    },
    {
      "type": "Feature",
      "geometry": {
        "type": "Point",
        "coordinates": [
          38.476,
          7.06
        ]
      },
      "properties": {
        "id": "wba_prj_01HREAL014",
        "name": "Hawassa Industrial Park",
        "country": "ETH",
        "sectors": "industrial_parks|manufacturing",
        "status": "commissioned",
        "location_precision": "exact"
      }
    },
    {
      "type": "Feature",
      "geometry": {
        "type": "Point",
        "coordinates": [
          25.262,
          -17.775
        ]
      },
      "properties": {
        "id": "wba_prj_01HREAL015",
        "name": "Kazungula Bridge",
        "country": "BWA",
        "sectors": "bridges",
        "status": "commissioned",
        "location_precision": "exact"
      }
    },
    {
      "type": "Feature",
      "geometry": {
        "type": "Point",
        "coordinates": [
          29.987,
          -22.217
        ]
      },
      "properties": {
        "id": "wba_prj_01HREAL016",
        "name": "Beitbridge Border Post Modernisation",
        "country": "ZWE",
        "sectors": "other",
        "status": "commissioned",
        "location_precision": "exact"
      }
    },
    {
      "type": "Feature",
      "geometry": {
        "type": "Point",
        "coordinates": [
          31.053,
          -17.829
        ]
      },
      "properties": {
        "id": "wba_prj_01HREAL017",
        "name": "TelOne National Broadband Telecommunication Project",
        "country": "ZWE",
        "sectors": "telecommunications|digital_infrastructure",
        "status": "commissioned",
        "location_precision": "approximate"
      }
    },
    {
      "type": "Feature",
      "geometry": {
        "type": "Point",
        "coordinates": [
          37.738,
          -1.789
        ]
      },
      "properties": {
        "id": "wba_prj_01HREAL018",
        "name": "Thwake Multipurpose Water Development Program",
        "country": "KEN",
        "sectors": "dams|water_supply|hydropower",
        "status": "construction_started",
        "location_precision": "exact"
      }
    },
    {
      "type": "Feature",
      "geometry": {
        "type": "Point",
        "coordinates": [
          39.636,
          -4.054
        ]
      },
      "properties": {
        "id": "wba_prj_01HREAL019",
        "name": "Mombasa Port Second Container Terminal",
        "country": "KEN",
        "sectors": "ports",
        "status": "commissioned",
        "location_precision": "exact"
      }
    },
    {
      "type": "Feature",
      "geometry": {
        "type": "Point",
        "coordinates": [
          39.25,
          8.458
        ]
      },
      "properties": {
        "id": "wba_prj_01HREAL020",
        "name": "Adama Wind Power Project I & II",
        "country": "ETH",
        "sectors": "wind_power",
        "status": "commissioned",
        "location_precision": "exact"
      }
    },
    {
      "type": "Feature",
      "geometry": {
        "type": "Point",
        "coordinates": [
          38.797,
          8.978
        ]
      },
      "properties": {
        "id": "wba_prj_01HREAL021",
        "name": "Addis Ababa Bole International Airport Expansion",
        "country": "ETH",
        "sectors": "airports",
        "status": "commissioned",
        "location_precision": "exact"
      }
    },
    {
      "type": "Feature",
      "geometry": {
        "type": "Point",
        "coordinates": [
          28.424,
          -15.803
        ]
      },
      "properties": {
        "id": "wba_prj_01HREAL022",
        "name": "Kafue Gorge Lower Hydropower Station",
        "country": "ZMB",
        "sectors": "hydropower|dams",
        "status": "commissioned",
        "location_precision": "exact"
      }
    },
    {
      "type": "Feature",
      "geometry": {
        "type": "Point",
        "coordinates": [
          37.861,
          -7.809
        ]
      },
      "properties": {
        "id": "wba_prj_01HREAL023",
        "name": "Julius Nyerere Hydropower Plant and Dam",
        "country": "TZA",
        "sectors": "hydropower|dams",
        "status": "commissioned",
        "location_precision": "exact"
      }
    },
    {
      "type": "Feature",
      "geometry": {
        "type": "Point",
        "coordinates": [
          32.572,
          -25.973
        ]
      },
      "properties": {
        "id": "wba_prj_01HREAL024",
        "name": "Maputo-Katembe Bridge",
        "country": "MOZ",
        "sectors": "bridges",
        "status": "commissioned",
        "location_precision": "exact"
      }
    },
    {
      "type": "Feature",
      "geometry": {
        "type": "Point",
        "coordinates": [
          30.181,
          -2.13
        ]
      },
      "properties": {
        "id": "wba_prj_01HREAL025",
        "name": "New Bugesera International Airport",
        "country": "RWA",
        "sectors": "airports",
        "status": "construction_started",
        "location_precision": "exact"
      }
    },
    {
      "type": "Feature",
      "geometry": null,
      "properties": {
        "id": "wba_prj_01HREAL026",
        "name": "Dakar Regional Express Train",
        "country": "SEN",
        "sectors": "railways|public_transport",
        "status": "commissioned",
        "location_precision": "corridor",
        "geom_wkt": "LINESTRING(-17.45 14.69, -17.07 14.78)"
      }
    },
    {
      "type": "Feature",
      "geometry": {
        "type": "Point",
        "coordinates": [
          -2.121,
          8.278
        ]
      },
      "properties": {
        "id": "wba_prj_01HREAL027",
        "name": "Bui Hydropower Dam",
        "country": "GHA",
        "sectors": "hydropower|dams",
        "status": "commissioned",
        "location_precision": "exact"
      }
    },
    {
      "type": "Feature",
      "geometry": {
        "type": "Point",
        "coordinates": [
          15.121,
          -9.743
        ]
      },
      "properties": {
        "id": "wba_prj_01HREAL028",
        "name": "Lauca Hydroelectric Power Station",
        "country": "AGO",
        "sectors": "hydropower|dams",
        "status": "commissioned",
        "location_precision": "exact"
      }
    },
    {
      "type": "Feature",
      "geometry": null,
      "properties": {
        "id": "wba_prj_01HREAL029",
        "name": "Kampala-Entebbe Expressway",
        "country": "UGA",
        "sectors": "roads",
        "status": "commissioned",
        "location_precision": "corridor",
        "geom_wkt": "LINESTRING(32.56 0.32, 32.47 0.06)"
      }
    },
    {
      "type": "Feature",
      "geometry": {
        "type": "Point",
        "coordinates": [
          33.787,
          -13.962
        ]
      },
      "properties": {
        "id": "wba_prj_01HREAL030",
        "name": "National Fibre Backbone Project Phase I-II",
        "country": "MWI",
        "sectors": "telecommunications|digital_infrastructure",
        "status": "commissioned",
        "location_precision": "exact"
      }
    },
    {
      "type": "Feature",
      "geometry": {
        "type": "Point",
        "coordinates": [
          30.507,
          -20.728
        ]
      },
      "properties": {
        "id": "wba_prj_01HREAL031",
        "name": "Tokwe-Mukosi Dam",
        "country": "ZWE",
        "sectors": "dams|water_supply",
        "status": "commissioned",
        "location_precision": "exact"
      }
    },
    {
      "type": "Feature",
      "geometry": {
        "type": "Point",
        "coordinates": [
          31.033,
          -17.825
        ]
      },
      "properties": {
        "id": "wba_prj_01HREAL032",
        "name": "NetOne Broadband Expansion Project Phase 3",
        "country": "ZWE",
        "sectors": "telecommunications|digital_infrastructure",
        "status": "commissioned",
        "location_precision": "approximate"
      }
    },
    {
      "type": "Feature",
      "geometry": {
        "type": "Point",
        "coordinates": [
          36.287,
          -0.892
        ]
      },
      "properties": {
        "id": "wba_prj_01HREAL033",
        "name": "Olkaria Geothermal Power Plants",
        "country": "KEN",
        "sectors": "hydropower",
        "status": "commissioned",
        "location_precision": "exact"
      }
    },
    {
      "type": "Feature",
      "geometry": null,
      "properties": {
        "id": "wba_prj_01HREAL034",
        "name": "Nairobi Outer Ring Road Improvement Project",
        "country": "KEN",
        "sectors": "roads",
        "status": "commissioned",
        "location_precision": "corridor",
        "geom_wkt": "LINESTRING(36.86 -1.28, 36.89 -1.31)"
      }
    },
    {
      "type": "Feature",
      "geometry": {
        "type": "Point",
        "coordinates": [
          39.221,
          5.846
        ]
      },
      "properties": {
        "id": "wba_prj_01HREAL035",
        "name": "Genale Dawa III Multipurpose Hydropower Project",
        "country": "ETH",
        "sectors": "hydropower|dams",
        "status": "commissioned",
        "location_precision": "exact"
      }
    },
    {
      "type": "Feature",
      "geometry": {
        "type": "Point",
        "coordinates": [
          28.449,
          -15.325
        ]
      },
      "properties": {
        "id": "wba_prj_01HREAL036",
        "name": "Kenneth Kaunda International Airport Expansion",
        "country": "ZMB",
        "sectors": "airports",
        "status": "commissioned",
        "location_precision": "exact"
      }
    },
    {
      "type": "Feature",
      "geometry": null,
      "properties": {
        "id": "wba_prj_01HREAL037",
        "name": "Tanzania Standard Gauge Railway Lots 3 & 4",
        "country": "TZA",
        "sectors": "railways",
        "status": "construction_started",
        "location_precision": "corridor",
        "geom_wkt": "LINESTRING(33.44 -6.16, 32.80 -5.02)"
      }
    },
    {
      "type": "Feature",
      "geometry": null,
      "properties": {
        "id": "wba_prj_01HREAL038",
        "name": "Nacala Railway and Port Corridor",
        "country": "MOZ",
        "sectors": "railways|ports",
        "status": "commissioned",
        "location_precision": "corridor",
        "geom_wkt": "LINESTRING(40.78 -14.54, 35.58 -14.38)"
      }
    },
    {
      "type": "Feature",
      "geometry": {
        "type": "Point",
        "coordinates": [
          -0.018,
          5.618
        ]
      },
      "properties": {
        "id": "wba_prj_01HREAL039",
        "name": "Tema Port Expansion Terminal 3",
        "country": "GHA",
        "sectors": "ports",
        "status": "commissioned",
        "location_precision": "exact"
      }
    },
    {
      "type": "Feature",
      "geometry": {
        "type": "Point",
        "coordinates": [
          16.016,
          -9.312
        ]
      },
      "properties": {
        "id": "wba_prj_01HREAL040",
        "name": "Caculo Cabaca Hydropower Station",
        "country": "AGO",
        "sectors": "hydropower|dams",
        "status": "construction_started",
        "location_precision": "exact"
      }
    },
    {
      "type": "Feature",
      "geometry": {
        "type": "Point",
        "coordinates": [
          -6.869,
          31.048
        ]
      },
      "properties": {
        "id": "wba_prj_01HREAL041",
        "name": "Noor Ouarzazate Solar Complex",
        "country": "MAR",
        "sectors": "solar_power",
        "status": "commissioned",
        "location_precision": "exact"
      }
    },
    {
      "type": "Feature",
      "geometry": {
        "type": "Point",
        "coordinates": [
          14.481,
          -22.959
        ]
      },
      "properties": {
        "id": "wba_prj_01HREAL042",
        "name": "Walvis Bay New Container Terminal",
        "country": "NAM",
        "sectors": "ports",
        "status": "commissioned",
        "location_precision": "exact"
      }
    },
    {
      "type": "Feature",
      "geometry": {
        "type": "Point",
        "coordinates": [
          9.909,
          2.945
        ]
      },
      "properties": {
        "id": "wba_prj_01HREAL043",
        "name": "Kribi Deep Sea Port Phase I & II",
        "country": "CMR",
        "sectors": "ports",
        "status": "commissioned",
        "location_precision": "exact"
      }
    },
    {
      "type": "Feature",
      "geometry": null,
      "properties": {
        "id": "wba_prj_01HREAL044",
        "name": "Gautrain Rapid Rail System",
        "country": "ZAF",
        "sectors": "railways|public_transport",
        "status": "commissioned",
        "location_precision": "corridor",
        "geom_wkt": "LINESTRING(28.05 -26.20, 28.11 -25.75)"
      }
    },
    {
      "type": "Feature",
      "geometry": {
        "type": "Point",
        "coordinates": [
          26.909,
          -10.917
        ]
      },
      "properties": {
        "id": "wba_prj_01HREAL045",
        "name": "Busanga Hydropower Plant",
        "country": "COD",
        "sectors": "hydropower|dams",
        "status": "commissioned",
        "location_precision": "exact"
      }
    },
    {
      "type": "Feature",
      "geometry": {
        "type": "Point",
        "coordinates": [
          31.667,
          30.02
        ]
      },
      "properties": {
        "id": "wba_prj_01HREAL046",
        "name": "New Administrative Capital Central Business District",
        "country": "EGY",
        "sectors": "urban_development",
        "status": "commissioned",
        "location_precision": "exact"
      }
    },
    {
      "type": "Feature",
      "geometry": {
        "type": "Point",
        "coordinates": [
          -17.073,
          14.67
        ]
      },
      "properties": {
        "id": "wba_prj_01HREAL047",
        "name": "Blaise Diagne International Airport",
        "country": "SEN",
        "sectors": "airports",
        "status": "commissioned",
        "location_precision": "exact"
      }
    },
    {
      "type": "Feature",
      "geometry": {
        "type": "Point",
        "coordinates": [
          30.091,
          -1.953
        ]
      },
      "properties": {
        "id": "wba_prj_01HREAL048",
        "name": "BK Arena",
        "country": "RWA",
        "sectors": "other",
        "status": "commissioned",
        "location_precision": "exact"
      }
    },
    {
      "type": "Feature",
      "geometry": {
        "type": "Point",
        "coordinates": [
          32.233,
          2.235
        ]
      },
      "properties": {
        "id": "wba_prj_01HREAL049",
        "name": "Karuma Hydropower Plant",
        "country": "UGA",
        "sectors": "hydropower|dams",
        "status": "commissioned",
        "location_precision": "exact"
      }
    },
    {
      "type": "Feature",
      "geometry": {
        "type": "Point",
        "coordinates": [
          -1.477,
          12.382
        ]
      },
      "properties": {
        "id": "wba_prj_01HREAL050",
        "name": "Zagtouli Solar Power Station",
        "country": "BFA",
        "sectors": "solar_power",
        "status": "commissioned",
        "location_precision": "exact"
      }
    }
  ],
  "_note": "SYNTHETIC if from samples; real data requires source-backed coords"
}